{
"type": "FeatureCollection",
"name": "leeds_dft_aadt_27700",
"crs": { "type": "name", "properties": { "name": "urn:ogc:def:crs:EPSG::27700" } },
"features": [
{ "type": "Feature", "properties": { "count_point_id": 6009, "year": 2024, "local_authority_name": "Leeds", "road_name": "M621", "road_category": "TM", "road_type": "Major", "latitude": 53.76088548, "longitude": -1.513818309, "aadt_pedal_cycles": 0, "aadt_all_motor_vehicles": 67200 }, "geometry": { "type": "Point", "coordinates": [ 432149.722983272164129, 429501.81536541308742 ] } },
{ "type": "Feature", "properties": { "count_point_id": 6055, "year": 2024, "local_authority_name": "Leeds", "road_name": "M62", "road_category": "TM", "road_type": "Major", "latitude": 53.73156644, "longitude": -1.607377485, "aadt_pedal_cycles": 0, "aadt_all_motor_vehicles": 138133 }, "geometry": { "type": "Point", "coordinates": [ 425999.75587032455951, 426201.700005309656262 ] } },
{ "type": "Feature", "properties": { "count_point_id": 6063, "year": 2024, "local_authority_name": "Leeds", "road_name": "M621", "road_category": "TM", "road_type": "Major", "latitude": 53.76210037, "longitude": -1.599508767, "aadt_pedal_cycles": 0, "aadt_all_motor_vehicles": 53900 }, "geometry": { "type": "Point", "coordinates": [ 426499.734476187149994, 429601.746385948383249 ] } },
{ "type": "Feature", "properties": { "count_point_id": 6578, "year": 2024, "local_authority_name": "Leeds", "road_name": "A58", "road_category": "PA", "road_type": "Major", "latitude": 53.76510414, "longitude": -1.645854882, "aadt_pedal_cycles": 57, "aadt_all_motor_vehicles": 6740 }, "geometry": { "type": "Point", "coordinates": [ 423442.737330420059152, 429919.724397621466778 ] } },
{ "type": "Feature", "properties": { "count_point_id": 7398, "year": 2024, "local_authority_name": "Leeds", "road_name": "A639", "road_category": "PA", "road_type": "Major", "latitude": 53.74794805, "longitude": -1.454433713, "aadt_pedal_cycles": 111, "aadt_all_motor_vehicles": 24051 }, "geometry": { "type": "Point", "coordinates": [ 436075.74648694699863, 428090.843529934296384 ] } },
{ "type": "Feature", "properties": { "count_point_id": 7402, "year": 2024, "local_authority_name": "Leeds", "road_name": "A642", "road_category": "PA", "road_type": "Major", "latitude": 53.73725028, "longitude": -1.456012168, "aadt_pedal_cycles": 11, "aadt_all_motor_vehicles": 17009 }, "geometry": { "type": "Point", "coordinates": [ 435980.7618169169873, 426899.838835717411712 ] } },
{ "type": "Feature", "properties": { "count_point_id": 7403, "year": 2024, "local_authority_name": "Leeds", "road_name": "A643", "road_category": "PA", "road_type": "Major", "latitude": 53.76411283, "longitude": -1.583409793, "aadt_pedal_cycles": 115, "aadt_all_motor_vehicles": 11992 }, "geometry": { "type": "Point", "coordinates": [ 427559.733579695341177, 429831.749543056357652 ] } },
{ "type": "Feature", "properties": { "count_point_id": 7410, "year": 2024, "local_authority_name": "Leeds", "road_name": "A647", "road_category": "PA", "road_type": "Major", "latitude": 53.80174407, "longitude": -1.629498037, "aadt_pedal_cycles": 0, "aadt_all_motor_vehicles": 19813 }, "geometry": { "type": "Point", "coordinates": [ 424499.720722837664653, 434001.743808082770556 ] } },
{ "type": "Feature", "properties": { "count_point_id": 7415, "year": 2024, "local_authority_name": "Leeds", "road_name": "A650", "road_category": "PA", "road_type": "Major", "latitude": 53.72164678, "longitude": -1.546852453, "aadt_pedal_cycles": 35, "aadt_all_motor_vehicles": 15440 }, "geometry": { "type": "Point", "coordinates": [ 429999.74275989132002, 425121.808689269586466 ] } },
{ "type": "Feature", "properties": { "count_point_id": 7418, "year": 2024, "local_authority_name": "Leeds", "road_name": "A654", "road_category": "PA", "road_type": "Major", "latitude": 53.74900388, "longitude": -1.457346762, "aadt_pedal_cycles": 39, "aadt_all_motor_vehicles": 9145 }, "geometry": { "type": "Point", "coordinates": [ 435882.745946857961826, 428206.842137653846294 ] } },
{ "type": "Feature", "properties": { "count_point_id": 7755, "year": 2024, "local_authority_name": "Leeds", "road_name": "A6120", "road_category": "PA", "road_type": "Major", "latitude": 53.84666536, "longitude": -1.545505841, "aadt_pedal_cycles": 14, "aadt_all_motor_vehicles": 26118 }, "geometry": { "type": "Point", "coordinates": [ 429999.633952093077824, 439031.780884495354258 ] } },
{ "type": "Feature", "properties": { "count_point_id": 7850, "year": 2024, "local_authority_name": "Leeds", "road_name": "A58", "road_category": "PA", "road_type": "Major", "latitude": 53.80609117, "longitude": -1.537850188, "aadt_pedal_cycles": 185, "aadt_all_motor_vehicles": 45608 }, "geometry": { "type": "Point", "coordinates": [ 430532.687835904944222, 434520.770163977053016 ] } },
{ "type": "Feature", "properties": { "count_point_id": 8348, "year": 2024, "local_authority_name": "Leeds", "road_name": "M621", "road_category": "TM", "road_type": "Major", "latitude": 53.77604804, "longitude": -1.538832371, "aadt_pedal_cycles": 0, "aadt_all_motor_vehicles": 84022 }, "geometry": { "type": "Point", "coordinates": [ 430489.702029082633089, 431177.787182935862802 ] } },
{ "type": "Feature", "properties": { "count_point_id": 8538, "year": 2024, "local_authority_name": "Leeds", "road_name": "M621", "road_category": "TM", "road_type": "Major", "latitude": 53.74782688, "longitude": -1.63315627, "aadt_pedal_cycles": 0, "aadt_all_motor_vehicles": 14955 }, "geometry": { "type": "Point", "coordinates": [ 424289.743424017797224, 428001.726556927780621 ] } },
{ "type": "Feature", "properties": { "count_point_id": 8540, "year": 2024, "local_authority_name": "Leeds", "road_name": "A660", "road_category": "PA", "road_type": "Major", "latitude": 53.80335669, "longitude": -1.546717374, "aadt_pedal_cycles": 442, "aadt_all_motor_vehicles": 10304 }, "geometry": { "type": "Point", "coordinates": [ 429950.679592058353592, 434212.771758503047749 ] } },
{ "type": "Feature", "properties": { "count_point_id": 8548, "year": 2024, "local_authority_name": "Leeds", "road_name": "M621", "road_category": "TM", "road_type": "Major", "latitude": 53.74698451, "longitude": -1.622397555, "aadt_pedal_cycles": 0, "aadt_all_motor_vehicles": 26125 }, "geometry": { "type": "Point", "coordinates": [ 424999.741871052130591, 427911.720308650750667 ] } },
{ "type": "Feature", "properties": { "count_point_id": 8554, "year": 2024, "local_authority_name": "Leeds", "road_name": "A64(M)", "road_category": "PM", "road_type": "Major", "latitude": 53.79850808, "longitude": -1.527047573, "aadt_pedal_cycles": 0, "aadt_all_motor_vehicles": 32761 }, "geometry": { "type": "Point", "coordinates": [ 431249.712016537261661, 433681.765977363684215 ] } },
{ "type": "Feature", "properties": { "count_point_id": 16054, "year": 2024, "local_authority_name": "Leeds", "road_name": "M62", "road_category": "TM", "road_type": "Major", "latitude": 53.7279765, "longitude": -1.489188554, "aadt_pedal_cycles": 0, "aadt_all_motor_vehicles": 116154 }, "geometry": { "type": "Point", "coordinates": [ 433799.76926960045239, 425851.826875013997778 ] } },
{ "type": "Feature", "properties": { "count_point_id": 16576, "year": 2024, "local_authority_name": "Leeds", "road_name": "A61", "road_category": "PA", "road_type": "Major", "latitude": 53.82392663, "longitude": -1.545751352, "aadt_pedal_cycles": 101, "aadt_all_motor_vehicles": 30542 }, "geometry": { "type": "Point", "coordinates": [ 429999.665162590681575, 436501.774285238236189 ] } },
{ "type": "Feature", "properties": { "count_point_id": 16590, "year": 2024, "local_authority_name": "Leeds", "road_name": "A64", "road_category": "PA", "road_type": "Major", "latitude": 53.81995579, "longitude": -1.455353585, "aadt_pedal_cycles": 6, "aadt_all_motor_vehicles": 27989 }, "geometry": { "type": "Point", "coordinates": [ 435953.670507008908316, 436101.832797249546275 ] } },
{ "type": "Feature", "properties": { "count_point_id": 16598, "year": 2024, "local_authority_name": "Leeds", "road_name": "A65", "road_category": "PA", "road_type": "Major", "latitude": 53.82598739, "longitude": -1.621687351, "aadt_pedal_cycles": 188, "aadt_all_motor_vehicles": 15299 }, "geometry": { "type": "Point", "coordinates": [ 424999.784695769485552, 436701.756264082272537 ] } },
{ "type": "Feature", "properties": { "count_point_id": 17366, "year": 2024, "local_authority_name": "Leeds", "road_name": "A650", "road_category": "PA", "road_type": "Major", "latitude": 53.74882799, "longitude": -1.631343032, "aadt_pedal_cycles": 102, "aadt_all_motor_vehicles": 22509 }, "geometry": { "type": "Point", "coordinates": [ 424408.742797263548709, 428113.726943047600798 ] } },
{ "type": "Feature", "properties": { "count_point_id": 17369, "year": 2024, "local_authority_name": "Leeds", "road_name": "A653", "road_category": "PA", "road_type": "Major", "latitude": 53.75322631, "longitude": -1.570110739, "aadt_pedal_cycles": 97, "aadt_all_motor_vehicles": 42088 }, "geometry": { "type": "Point", "coordinates": [ 428443.745370705088135, 428625.753716892679222 ] } },
{ "type": "Feature", "properties": { "count_point_id": 17374, "year": 2024, "local_authority_name": "Leeds", "road_name": "A660", "road_category": "PA", "road_type": "Major", "latitude": 53.81048322, "longitude": -1.556071282, "aadt_pedal_cycles": 930, "aadt_all_motor_vehicles": 16878 }, "geometry": { "type": "Point", "coordinates": [ 429329.681587444443721, 435001.773359511629678 ] } },
{ "type": "Feature", "properties": { "count_point_id": 17719, "year": 2024, "local_authority_name": "Leeds", "road_name": "A6110", "road_category": "PA", "road_type": "Major", "latitude": 53.78041101, "longitude": -1.592050108, "aadt_pedal_cycles": 70, "aadt_all_motor_vehicles": 31962 }, "geometry": { "type": "Point", "coordinates": [ 426979.747020633425564, 431641.75999786646571 ] } },
{ "type": "Feature", "properties": { "count_point_id": 17721, "year": 2024, "local_authority_name": "Leeds", "road_name": "A6120", "road_category": "PA", "road_type": "Major", "latitude": 53.81220528, "longitude": -1.682712858, "aadt_pedal_cycles": 1, "aadt_all_motor_vehicles": 29825 }, "geometry": { "type": "Point", "coordinates": [ 420989.678139865223784, 435148.691460032830946 ] } },
{ "type": "Feature", "properties": { "count_point_id": 17950, "year": 2024, "local_authority_name": "Leeds", "road_name": "A58", "road_category": "PA", "road_type": "Major", "latitude": 53.78922828, "longitude": -1.568893362, "aadt_pedal_cycles": 34, "aadt_all_motor_vehicles": 16132 }, "geometry": { "type": "Point", "coordinates": [ 428499.719583096855786, 432631.767500124988146 ] } },
{ "type": "Feature", "properties": { "count_point_id": 18451, "year": 2024, "local_authority_name": "Leeds", "road_name": "A58", "road_category": "PA", "road_type": "Major", "latitude": 53.79848334, "longitude": -1.558277659, "aadt_pedal_cycles": 0, "aadt_all_motor_vehicles": 10007 }, "geometry": { "type": "Point", "coordinates": [ 429192.697142257471569, 433665.771317892707884 ] } },
{ "type": "Feature", "properties": { "count_point_id": 18655, "year": 2024, "local_authority_name": "Leeds", "road_name": "A58", "road_category": "PA", "road_type": "Major", "latitude": 53.75488376, "longitude": -1.667491975, "aadt_pedal_cycles": 33, "aadt_all_motor_vehicles": 4885 }, "geometry": { "type": "Point", "coordinates": [ 422021.746967560262419, 428775.729213504120708 ] } },
{ "type": "Feature", "properties": { "count_point_id": 26007, "year": 2024, "local_authority_name": "Leeds", "road_name": "M1", "road_category": "TM", "road_type": "Major", "latitude": 53.72155896, "longitude": -1.524121594, "aadt_pedal_cycles": 0, "aadt_all_motor_vehicles": 135571 }, "geometry": { "type": "Point", "coordinates": [ 431499.757535452372395, 425121.835913952207193 ] } },
{ "type": "Feature", "properties": { "count_point_id": 26074, "year": 2024, "local_authority_name": "Leeds", "road_name": "A64(M)", "road_category": "PM", "road_type": "Major", "latitude": 53.79933188, "longitude": -1.530834023, "aadt_pedal_cycles": 0, "aadt_all_motor_vehicles": 41129 }, "geometry": { "type": "Point", "coordinates": [ 430999.704768380499445, 433771.767343684798107 ] } },
{ "type": "Feature", "properties": { "count_point_id": 26603, "year": 2024, "local_authority_name": "Leeds", "road_name": "A61", "road_category": "PA", "road_type": "Major", "latitude": 53.80099573, "longitude": -1.53341184, "aadt_pedal_cycles": 396, "aadt_all_motor_vehicles": 27217 }, "geometry": { "type": "Point", "coordinates": [ 430828.69926521112211, 433955.767302422784269 ] } },
{ "type": "Feature", "properties": { "count_point_id": 26613, "year": 2024, "local_authority_name": "Leeds", "road_name": "A62", "road_category": "PA", "road_type": "Major", "latitude": 53.76555881, "longitude": -1.607061024, "aadt_pedal_cycles": 34, "aadt_all_motor_vehicles": 8519 }, "geometry": { "type": "Point", "coordinates": [ 425999.730965752387419, 429983.748877845820971 ] } },
{ "type": "Feature", "properties": { "count_point_id": 27414, "year": 2024, "local_authority_name": "Leeds", "road_name": "A639", "road_category": "PA", "road_type": "Major", "latitude": 53.7568486, "longitude": -1.473065047, "aadt_pedal_cycles": 94, "aadt_all_motor_vehicles": 14376 }, "geometry": { "type": "Point", "coordinates": [ 434839.744065679435153, 429071.829596055671573 ] } },
{ "type": "Feature", "properties": { "count_point_id": 27428, "year": 2024, "local_authority_name": "Leeds", "road_name": "A647", "road_category": "PA", "road_type": "Major", "latitude": 53.80284567, "longitude": -1.637080943, "aadt_pedal_cycles": 6, "aadt_all_motor_vehicles": 55340 }, "geometry": { "type": "Point", "coordinates": [ 423999.668172588106245, 434121.729517439031042 ] } },
{ "type": "Feature", "properties": { "count_point_id": 27432, "year": 2024, "local_authority_name": "Leeds", "road_name": "A650", "road_category": "PA", "road_type": "Major", "latitude": 53.73475161, "longitude": -1.592188597, "aadt_pedal_cycles": 109, "aadt_all_motor_vehicles": 20870 }, "geometry": { "type": "Point", "coordinates": [ 426999.764766743639484, 426561.715156705235131 ] } },
{ "type": "Feature", "properties": { "count_point_id": 27436, "year": 2024, "local_authority_name": "Leeds", "road_name": "A654", "road_category": "PA", "road_type": "Major", "latitude": 53.7388133, "longitude": -1.546667881, "aadt_pedal_cycles": 58, "aadt_all_motor_vehicles": 9746 }, "geometry": { "type": "Point", "coordinates": [ 429999.745569999678992, 427031.793977506924421 ] } },
{ "type": "Feature", "properties": { "count_point_id": 27439, "year": 2024, "local_authority_name": "Leeds", "road_name": "A657", "road_category": "PA", "road_type": "Major", "latitude": 53.81979187, "longitude": -1.653643668, "aadt_pedal_cycles": 81, "aadt_all_motor_vehicles": 9447 }, "geometry": { "type": "Point", "coordinates": [ 422899.647830390487798, 436001.713168264250271 ] } },
{ "type": "Feature", "properties": { "count_point_id": 27802, "year": 2024, "local_authority_name": "Leeds", "road_name": "A6029", "road_category": "PA", "road_type": "Major", "latitude": 53.73331353, "longitude": -1.592202499, "aadt_pedal_cycles": 56, "aadt_all_motor_vehicles": 8382 }, "geometry": { "type": "Point", "coordinates": [ 426999.765281720261555, 426401.712025641929358 ] } },
{ "type": "Feature", "properties": { "count_point_id": 27827, "year": 2024, "local_authority_name": "Leeds", "road_name": "A6110", "road_category": "PA", "road_type": "Major", "latitude": 53.7730018, "longitude": -1.58074251, "aadt_pedal_cycles": 65, "aadt_all_motor_vehicles": 33014 }, "geometry": { "type": "Point", "coordinates": [ 427729.729665419261437, 430821.757480063708499 ] } },
{ "type": "Feature", "properties": { "count_point_id": 27833, "year": 2024, "local_authority_name": "Leeds", "road_name": "A6120", "road_category": "PA", "road_type": "Major", "latitude": 53.83604906, "longitude": -1.625943262, "aadt_pedal_cycles": 36, "aadt_all_motor_vehicles": 19498 }, "geometry": { "type": "Point", "coordinates": [ 424713.747175441530999, 437819.733083956409246 ] } },
{ "type": "Feature", "properties": { "count_point_id": 28003, "year": 2024, "local_authority_name": "Leeds", "road_name": "A58", "road_category": "PA", "road_type": "Major", "latitude": 53.79601946, "longitude": -1.562872917, "aadt_pedal_cycles": 381, "aadt_all_motor_vehicles": 88395 }, "geometry": { "type": "Point", "coordinates": [ 428891.707535004825331, 433389.770319938077591 ] } },
{ "type": "Feature", "properties": { "count_point_id": 28005, "year": 2024, "local_authority_name": "Leeds", "road_name": "A643", "road_category": "PA", "road_type": "Major", "latitude": 53.78712621, "longitude": -1.566714167, "aadt_pedal_cycles": 78, "aadt_all_motor_vehicles": 48776 }, "geometry": { "type": "Point", "coordinates": [ 428644.714593843382318, 432398.766838666982949 ] } },
{ "type": "Feature", "properties": { "count_point_id": 28289, "year": 2024, "local_authority_name": "Leeds", "road_name": "A647", "road_category": "PA", "road_type": "Major", "latitude": 53.79597453, "longitude": -1.570342276, "aadt_pedal_cycles": 12, "aadt_all_motor_vehicles": 26067 }, "geometry": { "type": "Point", "coordinates": [ 428399.723905716673471, 433381.770150405936874 ] } },
{ "type": "Feature", "properties": { "count_point_id": 28291, "year": 2024, "local_authority_name": "Leeds", "road_name": "A58", "road_category": "PA", "road_type": "Major", "latitude": 53.80298406, "longitude": -1.545628177, "aadt_pedal_cycles": 184, "aadt_all_motor_vehicles": 7466 }, "geometry": { "type": "Point", "coordinates": [ 430022.678635136049706, 434171.771563606103882 ] } },
{ "type": "Feature", "properties": { "count_point_id": 28568, "year": 2024, "local_authority_name": "Kirklees", "road_name": "M621", "road_category": "TM", "road_type": "Major", "latitude": 53.74647856, "longitude": -1.645055924, "aadt_pedal_cycles": 0, "aadt_all_motor_vehicles": 18334 }, "geometry": { "type": "Point", "coordinates": [ 423505.750244598079007, 427847.731377220596187 ] } },
{ "type": "Feature", "properties": { "count_point_id": 36055, "year": 2024, "local_authority_name": "Leeds", "road_name": "M62", "road_category": "TM", "road_type": "Major", "latitude": 53.73321257, "longitude": -1.563402311, "aadt_pedal_cycles": 0, "aadt_all_motor_vehicles": 146640 }, "geometry": { "type": "Point", "coordinates": [ 428899.75984753848752, 426401.760430256021209 ] } },
{ "type": "Feature", "properties": { "count_point_id": 36603, "year": 2024, "local_authority_name": "Leeds", "road_name": "A58", "road_category": "PA", "road_type": "Major", "latitude": 53.78628933, "longitude": -1.576512119, "aadt_pedal_cycles": 176, "aadt_all_motor_vehicles": 11852 }, "geometry": { "type": "Point", "coordinates": [ 427999.732337906141765, 432301.764652570476755 ] } },
{ "type": "Feature", "properties": { "count_point_id": 36619, "year": 2024, "local_authority_name": "Leeds", "road_name": "A61", "road_category": "PA", "road_type": "Major", "latitude": 53.85532896, "longitude": -1.531273532, "aadt_pedal_cycles": 41, "aadt_all_motor_vehicles": 18534 }, "geometry": { "type": "Point", "coordinates": [ 430929.634842745261267, 440001.779880378977396 ] } },
{ "type": "Feature", "properties": { "count_point_id": 36621, "year": 2024, "local_authority_name": "Wakefield", "road_name": "A61", "road_category": "PA", "road_type": "Major", "latitude": 53.72037153, "longitude": -1.497463704, "aadt_pedal_cycles": 68, "aadt_all_motor_vehicles": 9717 }, "geometry": { "type": "Point", "coordinates": [ 433259.7767495723092, 425001.82744452310726 ] } },
{ "type": "Feature", "properties": { "count_point_id": 36642, "year": 2024, "local_authority_name": "Leeds", "road_name": "A65", "road_category": "PA", "road_type": "Major", "latitude": 53.83650979, "longitude": -1.656955167, "aadt_pedal_cycles": 151, "aadt_all_motor_vehicles": 20982 }, "geometry": { "type": "Point", "coordinates": [ 422672.65573620761279, 437860.690674423007295 ] } },
{ "type": "Feature", "properties": { "count_point_id": 37469, "year": 2024, "local_authority_name": "Kirklees", "road_name": "A643", "road_category": "PA", "road_type": "Major", "latitude": 53.73708677, "longitude": -1.639359157, "aadt_pedal_cycles": 32, "aadt_all_motor_vehicles": 7698 }, "geometry": { "type": "Point", "coordinates": [ 423886.744560405029915, 426804.707272232975811 ] } },
{ "type": "Feature", "properties": { "count_point_id": 37477, "year": 2024, "local_authority_name": "Leeds", "road_name": "A647", "road_category": "PA", "road_type": "Major", "latitude": 53.79809143, "longitude": -1.576727213, "aadt_pedal_cycles": 373, "aadt_all_motor_vehicles": 24640 }, "geometry": { "type": "Point", "coordinates": [ 427977.73824529099511, 433614.769969515968114 ] } },
{ "type": "Feature", "properties": { "count_point_id": 37861, "year": 2024, "local_authority_name": "Leeds", "road_name": "A6110", "road_category": "PA", "road_type": "Major", "latitude": 53.79453032, "longitude": -1.621970396, "aadt_pedal_cycles": 10, "aadt_all_motor_vehicles": 29303 }, "geometry": { "type": "Point", "coordinates": [ 424999.777404424676206, 433201.758761788485572 ] } },
{ "type": "Feature", "properties": { "count_point_id": 38343, "year": 2024, "local_authority_name": "Leeds", "road_name": "A642", "road_category": "PA", "road_type": "Major", "latitude": 53.7471425, "longitude": -1.453200725, "aadt_pedal_cycles": 10, "aadt_all_motor_vehicles": 3891 }, "geometry": { "type": "Point", "coordinates": [ 436157.746460949711036, 428001.84478807693813 ] } },
{ "type": "Feature", "properties": { "count_point_id": 38624, "year": 2024, "local_authority_name": "Kirklees", "road_name": "M62", "road_category": "TM", "road_type": "Major", "latitude": 53.747666, "longitude": -1.639374757, "aadt_pedal_cycles": 0, "aadt_all_motor_vehicles": 101111 }, "geometry": { "type": "Point", "coordinates": [ 423879.746004445652943, 427981.729367720428854 ] } },
{ "type": "Feature", "properties": { "count_point_id": 46069, "year": 2024, "local_authority_name": "Leeds", "road_name": "A58(M)", "road_category": "PM", "road_type": "Major", "latitude": 53.80413929, "longitude": -1.55167408, "aadt_pedal_cycles": 0, "aadt_all_motor_vehicles": 75092 }, "geometry": { "type": "Point", "coordinates": [ 429623.6843171431683, 434297.771547501906753 ] } },
{ "type": "Feature", "properties": { "count_point_id": 46614, "year": 2024, "local_authority_name": "Leeds", "road_name": "A61", "road_category": "PA", "road_type": "Major", "latitude": 53.8058771, "longitude": -1.533631051, "aadt_pedal_cycles": 267, "aadt_all_motor_vehicles": 18482 }, "geometry": { "type": "Point", "coordinates": [ 430810.695870536263101, 434498.768869110266678 ] } },
{ "type": "Feature", "properties": { "count_point_id": 46625, "year": 2024, "local_authority_name": "Leeds", "road_name": "A62", "road_category": "PA", "road_type": "Major", "latitude": 53.783593, "longitude": -1.576539274, "aadt_pedal_cycles": 173, "aadt_all_motor_vehicles": 13015 }, "geometry": { "type": "Point", "coordinates": [ 427999.730934331717435, 432001.763395905611105 ] } },
{ "type": "Feature", "properties": { "count_point_id": 47438, "year": 2024, "local_authority_name": "Leeds", "road_name": "A647", "road_category": "PA", "road_type": "Major", "latitude": 53.8031306, "longitude": -1.697919084, "aadt_pedal_cycles": 187, "aadt_all_motor_vehicles": 47389 }, "geometry": { "type": "Point", "coordinates": [ 419992.70318655425217, 434134.680864479392767 ] } },
{ "type": "Feature", "properties": { "count_point_id": 47443, "year": 2024, "local_authority_name": "Leeds", "road_name": "A650", "road_category": "PA", "road_type": "Major", "latitude": 53.72962296, "longitude": -1.564955193, "aadt_pedal_cycles": 148, "aadt_all_motor_vehicles": 23498 }, "geometry": { "type": "Point", "coordinates": [ 428799.760717966011725, 426001.760372968157753 ] } },
{ "type": "Feature", "properties": { "count_point_id": 47446, "year": 2024, "local_authority_name": "Leeds", "road_name": "A653", "road_category": "PA", "road_type": "Major", "latitude": 53.72966822, "longitude": -1.577686703, "aadt_pedal_cycles": 31, "aadt_all_motor_vehicles": 22545 }, "geometry": { "type": "Point", "coordinates": [ 427959.76982417749241, 426001.732175687211566 ] } },
{ "type": "Feature", "properties": { "count_point_id": 47827, "year": 2024, "local_authority_name": "Leeds", "road_name": "A6110", "road_category": "PA", "road_type": "Major", "latitude": 53.77678619, "longitude": -1.583436117, "aadt_pedal_cycles": 129, "aadt_all_motor_vehicles": 44578 }, "geometry": { "type": "Point", "coordinates": [ 427549.73400147940265, 431241.759882786660455 ] } },
{ "type": "Feature", "properties": { "count_point_id": 47831, "year": 2024, "local_authority_name": "Leeds", "road_name": "A6120", "road_category": "PA", "road_type": "Major", "latitude": 53.82879946, "longitude": -1.66055815, "aadt_pedal_cycles": 31, "aadt_all_motor_vehicles": 33327 }, "geometry": { "type": "Point", "coordinates": [ 422439.651393823791295, 437001.69959404040128 ] } },
{ "type": "Feature", "properties": { "count_point_id": 48049, "year": 2024, "local_authority_name": "Leeds", "road_name": "A58", "road_category": "PA", "road_type": "Major", "latitude": 53.79418926, "longitude": -1.566277076, "aadt_pedal_cycles": 381, "aadt_all_motor_vehicles": 88395 }, "geometry": { "type": "Point", "coordinates": [ 428668.715386626368854, 433184.769834723439999 ] } },
{ "type": "Feature", "properties": { "count_point_id": 48328, "year": 2024, "local_authority_name": "Leeds", "road_name": "A653", "road_category": "PA", "road_type": "Major", "latitude": 53.75988227, "longitude": -1.568920508, "aadt_pedal_cycles": 48, "aadt_all_motor_vehicles": 10356 }, "geometry": { "type": "Point", "coordinates": [ 428517.735957094351761, 429366.759753104648553 ] } },
{ "type": "Feature", "properties": { "count_point_id": 48416, "year": 2024, "local_authority_name": "Leeds", "road_name": "A58(M)", "road_category": "PM", "road_type": "Major", "latitude": 53.80534845, "longitude": -1.545769678, "aadt_pedal_cycles": 0, "aadt_all_motor_vehicles": 70808 }, "geometry": { "type": "Point", "coordinates": [ 430011.677327289595269, 434434.771813538041897 ] } },
{ "type": "Feature", "properties": { "count_point_id": 48535, "year": 2024, "local_authority_name": "Leeds", "road_name": "A58", "road_category": "PA", "road_type": "Major", "latitude": 53.79702121, "longitude": -1.561526582, "aadt_pedal_cycles": 475, "aadt_all_motor_vehicles": 28291 }, "geometry": { "type": "Point", "coordinates": [ 428979.704048846033402, 433501.770512554445304 ] } },
{ "type": "Feature", "properties": { "count_point_id": 56007, "year": 2024, "local_authority_name": "Leeds", "road_name": "M621", "road_category": "TM", "road_type": "Major", "latitude": 53.7704006, "longitude": -1.531095776, "aadt_pedal_cycles": 0, "aadt_all_motor_vehicles": 78234 }, "geometry": { "type": "Point", "coordinates": [ 431003.706256829958875, 430552.798390292446129 ] } },
{ "type": "Feature", "properties": { "count_point_id": 56009, "year": 2024, "local_authority_name": "Leeds", "road_name": "M621", "road_category": "TM", "road_type": "Major", "latitude": 53.78319755, "longitude": -1.542244774, "aadt_pedal_cycles": 0, "aadt_all_motor_vehicles": 65448 }, "geometry": { "type": "Point", "coordinates": [ 430259.693120732204989, 431971.77768446970731 ] } },
{ "type": "Feature", "properties": { "count_point_id": 56063, "year": 2024, "local_authority_name": "Leeds", "road_name": "M621", "road_category": "TM", "road_type": "Major", "latitude": 53.77846998, "longitude": -1.57659085, "aadt_pedal_cycles": 0, "aadt_all_motor_vehicles": 63387 }, "geometry": { "type": "Point", "coordinates": [ 427999.728677948878612, 431431.762166599510238 ] } },
{ "type": "Feature", "properties": { "count_point_id": 56065, "year": 2024, "local_authority_name": "Leeds", "road_name": "A58(M)", "road_category": "PM", "road_type": "Major", "latitude": 53.7970201, "longitude": -1.561222973, "aadt_pedal_cycles": 0, "aadt_all_motor_vehicles": 63688 }, "geometry": { "type": "Point", "coordinates": [ 428999.703347568982281, 433501.770482261897996 ] } },
{ "type": "Feature", "properties": { "count_point_id": 56479, "year": 2024, "local_authority_name": "Leeds", "road_name": "A58", "road_category": "PA", "road_type": "Major", "latitude": 53.81771466, "longitude": -1.513328397, "aadt_pedal_cycles": 95, "aadt_all_motor_vehicles": 17149 }, "geometry": { "type": "Point", "coordinates": [ 432138.711092437792104, 435824.773951910086907 ] } },
{ "type": "Feature", "properties": { "count_point_id": 56486, "year": 2024, "local_authority_name": "Kirklees", "road_name": "A62", "road_category": "PA", "road_type": "Major", "latitude": 53.74444078, "longitude": -1.642889693, "aadt_pedal_cycles": 22, "aadt_all_motor_vehicles": 30087 }, "geometry": { "type": "Point", "coordinates": [ 423649.749154210614506, 427621.726599366520531 ] } },
{ "type": "Feature", "properties": { "count_point_id": 56599, "year": 2024, "local_authority_name": "Leeds", "road_name": "A58", "road_category": "PA", "road_type": "Major", "latitude": 53.81092595, "longitude": -1.530704738, "aadt_pedal_cycles": 30, "aadt_all_motor_vehicles": 17012 }, "geometry": { "type": "Point", "coordinates": [ 430999.698234485462308, 435061.76849028270226 ] } },
{ "type": "Feature", "properties": { "count_point_id": 56895, "year": 2024, "local_authority_name": "Leeds", "road_name": "A642", "road_category": "PA", "road_type": "Major", "latitude": 53.76471733, "longitude": -1.425029597, "aadt_pedal_cycles": 69, "aadt_all_motor_vehicles": 10676 }, "geometry": { "type": "Point", "coordinates": [ 437999.733389847504441, 429971.836792082642205 ] } },
{ "type": "Feature", "properties": { "count_point_id": 57091, "year": 2024, "local_authority_name": "Leeds", "road_name": "A643", "road_category": "PA", "road_type": "Major", "latitude": 53.7753433, "longitude": -1.576925791, "aadt_pedal_cycles": 166, "aadt_all_motor_vehicles": 12940 }, "geometry": { "type": "Point", "coordinates": [ 427979.727535175043158, 431083.760329347569495 ] } },
{ "type": "Feature", "properties": { "count_point_id": 57092, "year": 2024, "local_authority_name": "Leeds", "road_name": "A6110", "road_category": "PA", "road_type": "Major", "latitude": 53.76921788, "longitude": -1.578201019, "aadt_pedal_cycles": 135, "aadt_all_motor_vehicles": 39169 }, "geometry": { "type": "Point", "coordinates": [ 427899.730396315804683, 430401.754940126673318 ] } },
{ "type": "Feature", "properties": { "count_point_id": 57442, "year": 2024, "local_authority_name": "Leeds", "road_name": "A650", "road_category": "PA", "road_type": "Major", "latitude": 53.74329944, "longitude": -1.622430554, "aadt_pedal_cycles": 86, "aadt_all_motor_vehicles": 17479 }, "geometry": { "type": "Point", "coordinates": [ 424999.742876211879775, 427501.714113047812134 ] } },
{ "type": "Feature", "properties": { "count_point_id": 57485, "year": 2024, "local_authority_name": "Leeds", "road_name": "A653", "road_category": "PA", "road_type": "Major", "latitude": 53.77418893, "longitude": -1.546287601, "aadt_pedal_cycles": 148, "aadt_all_motor_vehicles": 11973 }, "geometry": { "type": "Point", "coordinates": [ 429999.706650360254571, 430967.782678885618225 ] } },
{ "type": "Feature", "properties": { "count_point_id": 57589, "year": 2024, "local_authority_name": "Leeds", "road_name": "A639", "road_category": "PA", "road_type": "Major", "latitude": 53.74984276, "longitude": -1.454045222, "aadt_pedal_cycles": 51, "aadt_all_motor_vehicles": 17099 }, "geometry": { "type": "Point", "coordinates": [ 436099.746774691913743, 428301.841091974871233 ] } },
{ "type": "Feature", "properties": { "count_point_id": 57696, "year": 2024, "local_authority_name": "Leeds", "road_name": "A58", "road_category": "PA", "road_type": "Major", "latitude": 53.79137933, "longitude": -1.567201607, "aadt_pedal_cycles": 98, "aadt_all_motor_vehicles": 68276 }, "geometry": { "type": "Point", "coordinates": [ 428609.717347523954231, 432871.768554658861831 ] } },
{ "type": "Feature", "properties": { "count_point_id": 57751, "year": 2024, "local_authority_name": "Leeds", "road_name": "A6110", "road_category": "PA", "road_type": "Major", "latitude": 53.76561205, "longitude": -1.575203061, "aadt_pedal_cycles": 101, "aadt_all_motor_vehicles": 35217 }, "geometry": { "type": "Point", "coordinates": [ 428099.732497820688877, 430001.752506573218852 ] } },
{ "type": "Feature", "properties": { "count_point_id": 58227, "year": 2024, "local_authority_name": "Leeds", "road_name": "M621", "road_category": "TM", "road_type": "Major", "latitude": 53.74785602, "longitude": -1.642800117, "aadt_pedal_cycles": 0, "aadt_all_motor_vehicles": 29137 }, "geometry": { "type": "Point", "coordinates": [ 423653.747977311781142, 428001.730407230556011 ] } },
{ "type": "Feature", "properties": { "count_point_id": 58230, "year": 2024, "local_authority_name": "Leeds", "road_name": "A64(M)", "road_category": "PM", "road_type": "Major", "latitude": 53.80143241, "longitude": -1.539419705, "aadt_pedal_cycles": 0, "aadt_all_motor_vehicles": 46184 }, "geometry": { "type": "Point", "coordinates": [ 430432.687768630043138, 434001.769691566005349 ] } },
{ "type": "Feature", "properties": { "count_point_id": 59050, "year": 2024, "local_authority_name": "Leeds", "road_name": "M621", "road_category": "TM", "road_type": "Major", "latitude": 53.77432689, "longitude": -1.540019549, "aadt_pedal_cycles": 0, "aadt_all_motor_vehicles": 95218 }, "geometry": { "type": "Point", "coordinates": [ 430412.703901932982262, 430985.78752127813641 ] } },
{ "type": "Feature", "properties": { "count_point_id": 60050, "year": 2024, "local_authority_name": "Leeds", "road_name": "A6110", "road_category": "PA", "road_type": "Major", "latitude": 53.7623549, "longitude": -1.569168288, "aadt_pedal_cycles": 95, "aadt_all_motor_vehicles": 12404 }, "geometry": { "type": "Point", "coordinates": [ 428499.73296299984213, 429641.761526292888448 ] } },
{ "type": "Feature", "properties": { "count_point_id": 73113, "year": 2024, "local_authority_name": "Leeds", "road_name": "A650", "road_category": "PA", "road_type": "Major", "latitude": 53.75516239, "longitude": -1.67737825, "aadt_pedal_cycles": 24, "aadt_all_motor_vehicles": 14854 }, "geometry": { "type": "Point", "coordinates": [ 421369.748385462909937, 428803.726021618815139 ] } },
{ "type": "Feature", "properties": { "count_point_id": 73663, "year": 2024, "local_authority_name": "Leeds", "road_name": "A653", "road_category": "PA", "road_type": "Major", "latitude": 53.72233804, "longitude": -1.589277671, "aadt_pedal_cycles": 25, "aadt_all_motor_vehicles": 14124 }, "geometry": { "type": "Point", "coordinates": [ 427199.76672973606037, 425181.713133884128183 ] } },
{ "type": "Feature", "properties": { "count_point_id": 73664, "year": 2024, "local_authority_name": "Leeds", "road_name": "A58", "road_category": "PA", "road_type": "Major", "latitude": 53.75233529, "longitude": -1.675580004, "aadt_pedal_cycles": 27, "aadt_all_motor_vehicles": 11905 }, "geometry": { "type": "Point", "coordinates": [ 421489.751305453188252, 428489.726192238740623 ] } },
{ "type": "Feature", "properties": { "count_point_id": 73698, "year": 2024, "local_authority_name": "Leeds", "road_name": "A61", "road_category": "PA", "road_type": "Major", "latitude": 53.73206067, "longitude": -1.498537305, "aadt_pedal_cycles": 68, "aadt_all_motor_vehicles": 9717 }, "geometry": { "type": "Point", "coordinates": [ 433179.758887942822184, 426301.830636175349355 ] } },
{ "type": "Feature", "properties": { "count_point_id": 73711, "year": 2024, "local_authority_name": "Leeds", "road_name": "A643", "road_category": "PA", "road_type": "Major", "latitude": 53.74205912, "longitude": -1.628203119, "aadt_pedal_cycles": 32, "aadt_all_motor_vehicles": 7698 }, "geometry": { "type": "Point", "coordinates": [ 424619.742508455645293, 427361.711985153146088 ] } },
{ "type": "Feature", "properties": { "count_point_id": 74810, "year": 2024, "local_authority_name": "Leeds", "road_name": "A6110", "road_category": "PA", "road_type": "Major", "latitude": 53.76031157, "longitude": -1.570842478, "aadt_pedal_cycles": 73, "aadt_all_motor_vehicles": 21535 }, "geometry": { "type": "Point", "coordinates": [ 428390.736745535337832, 429413.756228374666534 ] } },
{ "type": "Feature", "properties": { "count_point_id": 74812, "year": 2024, "local_authority_name": "Leeds", "road_name": "A58", "road_category": "PA", "road_type": "Major", "latitude": 53.7889411, "longitude": -1.56403928, "aadt_pedal_cycles": 137, "aadt_all_motor_vehicles": 21001 }, "geometry": { "type": "Point", "coordinates": [ 428819.710325285035651, 432601.767400517710485 ] } },
{ "type": "Feature", "properties": { "count_point_id": 74815, "year": 2024, "local_authority_name": "Leeds", "road_name": "A61", "road_category": "PA", "road_type": "Major", "latitude": 53.80680819, "longitude": -1.535002616, "aadt_pedal_cycles": 42, "aadt_all_motor_vehicles": 11774 }, "geometry": { "type": "Point", "coordinates": [ 430719.692755344382022, 434601.768933955696411 ] } },
{ "type": "Feature", "properties": { "count_point_id": 74817, "year": 2024, "local_authority_name": "Leeds", "road_name": "A58", "road_category": "PA", "road_type": "Major", "latitude": 53.80815928, "longitude": -1.535746987, "aadt_pedal_cycles": 215, "aadt_all_motor_vehicles": 42282 }, "geometry": { "type": "Point", "coordinates": [ 430669.690525853948202, 434751.769349134410731 ] } },
{ "type": "Feature", "properties": { "count_point_id": 74818, "year": 2024, "local_authority_name": "Leeds", "road_name": "A65", "road_category": "PA", "road_type": "Major", "latitude": 53.80118196, "longitude": -1.56877083, "aadt_pedal_cycles": 459, "aadt_all_motor_vehicles": 29397 }, "geometry": { "type": "Point", "coordinates": [ 428499.720024599810131, 433961.77113511110656 ] } },
{ "type": "Feature", "properties": { "count_point_id": 74888, "year": 2024, "local_authority_name": "Leeds", "road_name": "A61", "road_category": "PA", "road_type": "Major", "latitude": 53.77868397, "longitude": -1.53713427, "aadt_pedal_cycles": 0, "aadt_all_motor_vehicles": 8447 }, "geometry": { "type": "Point", "coordinates": [ 430599.700339532631915, 431471.784478294081055 ] } },
{ "type": "Feature", "properties": { "count_point_id": 75430, "year": 2024, "local_authority_name": "Leeds", "road_name": "A58", "road_category": "PA", "road_type": "Major", "latitude": 53.7897566, "longitude": -1.565852245, "aadt_pedal_cycles": 137, "aadt_all_motor_vehicles": 10500 }, "geometry": { "type": "Point", "coordinates": [ 428699.714093767106533, 432691.7676984120626 ] } },
{ "type": "Feature", "properties": { "count_point_id": 76022, "year": 2024, "local_authority_name": "Bradford", "road_name": "A650", "road_category": "PA", "road_type": "Major", "latitude": 53.75791943, "longitude": -1.679890102, "aadt_pedal_cycles": 24, "aadt_all_motor_vehicles": 14854 }, "geometry": { "type": "Point", "coordinates": [ 421202.74781486421125, 429109.722179831471294 ] } },
{ "type": "Feature", "properties": { "count_point_id": 77657, "year": 2024, "local_authority_name": "Leeds", "road_name": "A642", "road_category": "PA", "road_type": "Major", "latitude": 53.74264785, "longitude": -1.453077006, "aadt_pedal_cycles": 12, "aadt_all_motor_vehicles": 18029 }, "geometry": { "type": "Point", "coordinates": [ 436169.752874793717638, 427501.844013218651526 ] } },
{ "type": "Feature", "properties": { "count_point_id": 77658, "year": 2024, "local_authority_name": "Leeds", "road_name": "A654", "road_category": "PA", "road_type": "Major", "latitude": 53.74707469, "longitude": -1.478342967, "aadt_pedal_cycles": 54, "aadt_all_motor_vehicles": 10666 }, "geometry": { "type": "Point", "coordinates": [ 434499.740560867357999, 427981.839178312802687 ] } },
{ "type": "Feature", "properties": { "count_point_id": 77660, "year": 2024, "local_authority_name": "Leeds", "road_name": "A642", "road_category": "PA", "road_type": "Major", "latitude": 53.75384544, "longitude": -1.444893782, "aadt_pedal_cycles": 55, "aadt_all_motor_vehicles": 16650 }, "geometry": { "type": "Point", "coordinates": [ 436699.741761879646219, 428751.843678370001726 ] } },
{ "type": "Feature", "properties": { "count_point_id": 77669, "year": 2024, "local_authority_name": "Leeds", "road_name": "A61", "road_category": "PA", "road_type": "Major", "latitude": 53.88333526, "longitude": -1.506574771, "aadt_pedal_cycles": 49, "aadt_all_motor_vehicles": 9693 }, "geometry": { "type": "Point", "coordinates": [ 432532.603941824345384, 443128.773175110924058 ] } },
{ "type": "Feature", "properties": { "count_point_id": 89170, "year": 2024, "local_authority_name": "Leeds", "road_name": "A62", "road_category": "TA", "road_type": "Major", "latitude": 53.74798297, "longitude": -1.637188474, "aadt_pedal_cycles": 48, "aadt_all_motor_vehicles": 31451 }, "geometry": { "type": "Point", "coordinates": [ 424023.744587268680334, 428017.728443528525531 ] } },
{ "type": "Feature", "properties": { "count_point_id": 89172, "year": 2024, "local_authority_name": "Leeds", "road_name": "M1", "road_category": "TM", "road_type": "Major", "latitude": 53.79896316, "longitude": -1.417821182, "aadt_pedal_cycles": 0, "aadt_all_motor_vehicles": 5275 }, "geometry": { "type": "Point", "coordinates": [ 438443.688305575691629, 433785.827551697846502 ] } },
{ "type": "Feature", "properties": { "count_point_id": 89173, "year": 2024, "local_authority_name": "Leeds", "road_name": "M1", "road_category": "TM", "road_type": "Major", "latitude": 53.79842265, "longitude": -1.417570559, "aadt_pedal_cycles": 0, "aadt_all_motor_vehicles": 1054 }, "geometry": { "type": "Point", "coordinates": [ 438460.688895097991917, 433725.826653368538246 ] } },
{ "type": "Feature", "properties": { "count_point_id": 89174, "year": 2024, "local_authority_name": "Leeds", "road_name": "M1", "road_category": "TM", "road_type": "Major", "latitude": 53.7929707, "longitude": -1.425843449, "aadt_pedal_cycles": 0, "aadt_all_motor_vehicles": 82658 }, "geometry": { "type": "Point", "coordinates": [ 437920.683186174370348, 433114.81585161446128 ] } },
{ "type": "Feature", "properties": { "count_point_id": 89175, "year": 2024, "local_authority_name": "Leeds", "road_name": "A63", "road_category": "TA", "road_type": "Major", "latitude": 53.7933073, "longitude": -1.426688968, "aadt_pedal_cycles": 0, "aadt_all_motor_vehicles": 5029 }, "geometry": { "type": "Point", "coordinates": [ 437864.68212531512836, 433151.815534455585293 ] } },
{ "type": "Feature", "properties": { "count_point_id": 89176, "year": 2024, "local_authority_name": "Leeds", "road_name": "A63", "road_category": "TA", "road_type": "Major", "latitude": 53.7929488, "longitude": -1.425024005, "aadt_pedal_cycles": 1, "aadt_all_motor_vehicles": 5364 }, "geometry": { "type": "Point", "coordinates": [ 437974.684033894096501, 433112.815899637411349 ] } },
{ "type": "Feature", "properties": { "count_point_id": 89177, "year": 2024, "local_authority_name": "Leeds", "road_name": "A63", "road_category": "TA", "road_type": "Major", "latitude": 53.79735313, "longitude": -1.421304962, "aadt_pedal_cycles": 4, "aadt_all_motor_vehicles": 3914 }, "geometry": { "type": "Point", "coordinates": [ 438215.685330210137181, 433604.823312970576808 ] } },
{ "type": "Feature", "properties": { "count_point_id": 92106, "year": 2024, "local_authority_name": "Leeds", "road_name": "A63", "road_category": "PA", "road_type": "Major", "latitude": 53.77442906, "longitude": -1.468975541, "aadt_pedal_cycles": 21, "aadt_all_motor_vehicles": 5905 }, "geometry": { "type": "Point", "coordinates": [ 435094.758172632951755, 431029.802737709716894 ] } },
{ "type": "Feature", "properties": { "count_point_id": 92107, "year": 2024, "local_authority_name": "Leeds", "road_name": "A64", "road_category": "PA", "road_type": "Major", "latitude": 53.8071782, "longitude": -1.470248163, "aadt_pedal_cycles": 323, "aadt_all_motor_vehicles": 21010 }, "geometry": { "type": "Point", "coordinates": [ 434983.7172924586921, 434672.795241053565405 ] } },
{ "type": "Feature", "properties": { "count_point_id": 93044, "year": 2024, "local_authority_name": "Leeds", "road_name": "A660", "road_category": "PA", "road_type": "Major", "latitude": 53.87354445, "longitude": -1.597534355, "aadt_pedal_cycles": 339, "aadt_all_motor_vehicles": 12101 }, "geometry": { "type": "Point", "coordinates": [ 426559.641559327777941, 442001.700462553068064 ] } },
{ "type": "Feature", "properties": { "count_point_id": 93135, "year": 2024, "local_authority_name": "Leeds", "road_name": "A61", "road_category": "PA", "road_type": "Major", "latitude": 53.80852371, "longitude": -1.534695121, "aadt_pedal_cycles": 174, "aadt_all_motor_vehicles": 10813 }, "geometry": { "type": "Point", "coordinates": [ 430738.69225152535364, 434792.768726825015619 ] } },
{ "type": "Feature", "properties": { "count_point_id": 94103, "year": 2024, "local_authority_name": "Leeds", "road_name": "A653", "road_category": "PA", "road_type": "Major", "latitude": 53.78518406, "longitude": -1.544651589, "aadt_pedal_cycles": 140, "aadt_all_motor_vehicles": 17658 }, "geometry": { "type": "Point", "coordinates": [ 430099.689360121090431, 432191.775255319313146 ] } },
{ "type": "Feature", "properties": { "count_point_id": 94104, "year": 2024, "local_authority_name": "Leeds", "road_name": "A61", "road_category": "PA", "road_type": "Major", "latitude": 53.78705578, "longitude": -1.524368325, "aadt_pedal_cycles": 281, "aadt_all_motor_vehicles": 57004 }, "geometry": { "type": "Point", "coordinates": [ 431434.716041873267386, 432408.775430987589061 ] } },
{ "type": "Feature", "properties": { "count_point_id": 94105, "year": 2024, "local_authority_name": "Leeds", "road_name": "A61", "road_category": "PA", "road_type": "Major", "latitude": 53.78338765, "longitude": -1.533258, "aadt_pedal_cycles": 22, "aadt_all_motor_vehicles": 39751 }, "geometry": { "type": "Point", "coordinates": [ 430851.701477693859488, 431996.780095627880655 ] } },
{ "type": "Feature", "properties": { "count_point_id": 94106, "year": 2024, "local_authority_name": "Leeds", "road_name": "A653", "road_category": "PA", "road_type": "Major", "latitude": 53.78887301, "longitude": -1.545674199, "aadt_pedal_cycles": 144, "aadt_all_motor_vehicles": 22195 }, "geometry": { "type": "Point", "coordinates": [ 430029.687424166535493, 432601.771953568910249 ] } },
{ "type": "Feature", "properties": { "count_point_id": 94107, "year": 2024, "local_authority_name": "Leeds", "road_name": "A61", "road_category": "PA", "road_type": "Major", "latitude": 53.79009512, "longitude": -1.538541903, "aadt_pedal_cycles": 321, "aadt_all_motor_vehicles": 19793 }, "geometry": { "type": "Point", "coordinates": [ 430498.694917518063448, 432740.770619550952688 ] } },
{ "type": "Feature", "properties": { "count_point_id": 94109, "year": 2024, "local_authority_name": "Leeds", "road_name": "A61", "road_category": "PA", "road_type": "Major", "latitude": 53.79105542, "longitude": -1.535844548, "aadt_pedal_cycles": 151, "aadt_all_motor_vehicles": 9840 }, "geometry": { "type": "Point", "coordinates": [ 430675.699127807165496, 432848.769943429622799 ] } },
{ "type": "Feature", "properties": { "count_point_id": 94110, "year": 2024, "local_authority_name": "Leeds", "road_name": "A61", "road_category": "PA", "road_type": "Major", "latitude": 53.79777606, "longitude": -1.535223863, "aadt_pedal_cycles": 535, "aadt_all_motor_vehicles": 27221 }, "geometry": { "type": "Point", "coordinates": [ 430711.697431047447026, 433596.767901148530655 ] } },
{ "type": "Feature", "properties": { "count_point_id": 94111, "year": 2024, "local_authority_name": "Leeds", "road_name": "A61", "road_category": "PA", "road_type": "Major", "latitude": 53.79372985, "longitude": -1.534813119, "aadt_pedal_cycles": 279, "aadt_all_motor_vehicles": 20717 }, "geometry": { "type": "Point", "coordinates": [ 430741.700039921503048, 433146.768230940331705 ] } },
{ "type": "Feature", "properties": { "count_point_id": 94112, "year": 2024, "local_authority_name": "Leeds", "road_name": "A61", "road_category": "PA", "road_type": "Major", "latitude": 53.7938104, "longitude": -1.532413658, "aadt_pedal_cycles": 101, "aadt_all_motor_vehicles": 13397 }, "geometry": { "type": "Point", "coordinates": [ 430899.704254381300416, 433156.767740961164236 ] } },
{ "type": "Feature", "properties": { "count_point_id": 94113, "year": 2024, "local_authority_name": "Leeds", "road_name": "A61", "road_category": "PA", "road_type": "Major", "latitude": 53.79110467, "longitude": -1.527737975, "aadt_pedal_cycles": 206, "aadt_all_motor_vehicles": 41341 }, "geometry": { "type": "Point", "coordinates": [ 431209.712749875325244, 432857.76881397748366 ] } },
{ "type": "Feature", "properties": { "count_point_id": 94114, "year": 2024, "local_authority_name": "Leeds", "road_name": "A653", "road_category": "PA", "road_type": "Major", "latitude": 53.79673427, "longitude": -1.530817438, "aadt_pedal_cycles": 167, "aadt_all_motor_vehicles": 34778 }, "geometry": { "type": "Point", "coordinates": [ 431002.705835109169129, 433482.767347733140923 ] } },
{ "type": "Feature", "properties": { "count_point_id": 94115, "year": 2024, "local_authority_name": "Leeds", "road_name": "A61", "road_category": "PA", "road_type": "Major", "latitude": 53.79563626, "longitude": -1.532742547, "aadt_pedal_cycles": 86, "aadt_all_motor_vehicles": 4623 }, "geometry": { "type": "Point", "coordinates": [ 430876.702862669888418, 433359.768267074483447 ] } },
{ "type": "Feature", "properties": { "count_point_id": 94116, "year": 2024, "local_authority_name": "Leeds", "road_name": "A653", "road_category": "PA", "road_type": "Major", "latitude": 53.79547081, "longitude": -1.531803135, "aadt_pedal_cycles": 67, "aadt_all_motor_vehicles": 30416 }, "geometry": { "type": "Point", "coordinates": [ 430938.70462139963638, 433341.767885085195303 ] } },
{ "type": "Feature", "properties": { "count_point_id": 94117, "year": 2024, "local_authority_name": "Leeds", "road_name": "A61", "road_category": "PA", "road_type": "Major", "latitude": 53.79075514, "longitude": -1.541904557, "aadt_pedal_cycles": 288, "aadt_all_motor_vehicles": 23148 }, "geometry": { "type": "Point", "coordinates": [ 430276.689230214629788, 432812.770087389508262 ] } },
{ "type": "Feature", "properties": { "count_point_id": 94118, "year": 2024, "local_authority_name": "Leeds", "road_name": "A61", "road_category": "PA", "road_type": "Major", "latitude": 53.78764578, "longitude": -1.535016989, "aadt_pedal_cycles": 291, "aadt_all_motor_vehicles": 17358 }, "geometry": { "type": "Point", "coordinates": [ 430732.700236687727738, 432469.774137142929249 ] } },
{ "type": "Feature", "properties": { "count_point_id": 94119, "year": 2024, "local_authority_name": "Leeds", "road_name": "A61", "road_category": "PA", "road_type": "Major", "latitude": 53.78515365, "longitude": -1.532069733, "aadt_pedal_cycles": 356, "aadt_all_motor_vehicles": 13241 }, "geometry": { "type": "Point", "coordinates": [ 430928.703242116665933, 432193.777812560088933 ] } },
{ "type": "Feature", "properties": { "count_point_id": 94120, "year": 2024, "local_authority_name": "Leeds", "road_name": "A639", "road_category": "PA", "road_type": "Major", "latitude": 53.77726854, "longitude": -1.517771726, "aadt_pedal_cycles": 136, "aadt_all_motor_vehicles": 17694 }, "geometry": { "type": "Point", "coordinates": [ 431876.722258049005177, 431322.791038207244128 ] } },
{ "type": "Feature", "properties": { "count_point_id": 94121, "year": 2024, "local_authority_name": "Leeds", "road_name": "A61", "road_category": "PA", "road_type": "Major", "latitude": 53.78621629, "longitude": -1.530297266, "aadt_pedal_cycles": 144, "aadt_all_motor_vehicles": 11501 }, "geometry": { "type": "Point", "coordinates": [ 431044.705800229043234, 432312.776261398685165 ] } },
{ "type": "Feature", "properties": { "count_point_id": 94122, "year": 2024, "local_authority_name": "Leeds", "road_name": "A61", "road_category": "PA", "road_type": "Major", "latitude": 53.78278427, "longitude": -1.535268012, "aadt_pedal_cycles": 86, "aadt_all_motor_vehicles": 46456 }, "geometry": { "type": "Point", "coordinates": [ 430719.699510314967483, 431928.780772144091316 ] } },
{ "type": "Feature", "properties": { "count_point_id": 94123, "year": 2024, "local_authority_name": "Leeds", "road_name": "M621", "road_category": "TM", "road_type": "Major", "latitude": 53.78632894, "longitude": -1.545549866, "aadt_pedal_cycles": 0, "aadt_all_motor_vehicles": 5492 }, "geometry": { "type": "Point", "coordinates": [ 430039.689111241372302, 432318.774244983214885 ] } },
{ "type": "Feature", "properties": { "count_point_id": 94124, "year": 2024, "local_authority_name": "Leeds", "road_name": "M621", "road_category": "TM", "road_type": "Major", "latitude": 53.78562291, "longitude": -1.549002723, "aadt_pedal_cycles": 0, "aadt_all_motor_vehicles": 6410 }, "geometry": { "type": "Point", "coordinates": [ 429812.692434714874253, 432238.772738876985386 ] } },
{ "type": "Feature", "properties": { "count_point_id": 94125, "year": 2024, "local_authority_name": "Leeds", "road_name": "M621", "road_category": "TM", "road_type": "Major", "latitude": 53.78461883, "longitude": -1.547298485, "aadt_pedal_cycles": 0, "aadt_all_motor_vehicles": 53319 }, "geometry": { "type": "Point", "coordinates": [ 429925.691640812030528, 432127.774125224212185 ] } },
{ "type": "Feature", "properties": { "count_point_id": 94222, "year": 2024, "local_authority_name": "Leeds", "road_name": "A63", "road_category": "PA", "road_type": "Major", "latitude": 53.78504029, "longitude": -1.495234905, "aadt_pedal_cycles": 75, "aadt_all_motor_vehicles": 28901 }, "geometry": { "type": "Point", "coordinates": [ 433355.760072064527776, 432197.77794522268232 ] } },
{ "type": "Feature", "properties": { "count_point_id": 95044, "year": 2024, "local_authority_name": "Leeds", "road_name": "A64", "road_category": "PA", "road_type": "Major", "latitude": 53.82426669, "longitude": -1.454599006, "aadt_pedal_cycles": 42, "aadt_all_motor_vehicles": 17438 }, "geometry": { "type": "Point", "coordinates": [ 435999.663187312486116, 436581.840221231337637 ] } },
{ "type": "Feature", "properties": { "count_point_id": 95045, "year": 2024, "local_authority_name": "Leeds", "road_name": "A58", "road_category": "PA", "road_type": "Major", "latitude": 53.83934866, "longitude": -1.470664198, "aadt_pedal_cycles": 33, "aadt_all_motor_vehicles": 13275 }, "geometry": { "type": "Point", "coordinates": [ 434929.640554405516014, 438251.845883840695024 ] } },
{ "type": "Feature", "properties": { "count_point_id": 95046, "year": 2024, "local_authority_name": "Leeds", "road_name": "A58", "road_category": "PA", "road_type": "Major", "latitude": 53.85347885, "longitude": -1.462809235, "aadt_pedal_cycles": 13, "aadt_all_motor_vehicles": 8893 }, "geometry": { "type": "Point", "coordinates": [ 435434.622807537904009, 439827.84505425975658 ] } },
{ "type": "Feature", "properties": { "count_point_id": 95047, "year": 2024, "local_authority_name": "Leeds", "road_name": "A6120", "road_category": "PA", "road_type": "Major", "latitude": 53.80378963, "longitude": -1.419637254, "aadt_pedal_cycles": 145, "aadt_all_motor_vehicles": 20470 }, "geometry": { "type": "Point", "coordinates": [ 438319.683611814165488, 434321.833835979807191 ] } },
{ "type": "Feature", "properties": { "count_point_id": 95048, "year": 2024, "local_authority_name": "Leeds", "road_name": "A6120", "road_category": "PA", "road_type": "Major", "latitude": 53.84363998, "longitude": -1.473634681, "aadt_pedal_cycles": 70, "aadt_all_motor_vehicles": 14481 }, "geometry": { "type": "Point", "coordinates": [ 434730.634822686028201, 438727.842401046887971 ] } },
{ "type": "Feature", "properties": { "count_point_id": 95049, "year": 2024, "local_authority_name": "Leeds", "road_name": "A6120", "road_category": "PA", "road_type": "Major", "latitude": 53.84016622, "longitude": -1.446627117, "aadt_pedal_cycles": 122, "aadt_all_motor_vehicles": 18093 }, "geometry": { "type": "Point", "coordinates": [ 436510.637084921647329, 438354.867206504684873 ] } },
{ "type": "Feature", "properties": { "count_point_id": 95050, "year": 2024, "local_authority_name": "Leeds", "road_name": "A6120", "road_category": "PA", "road_type": "Major", "latitude": 53.84969228, "longitude": -1.515071805, "aadt_pedal_cycles": 38, "aadt_all_motor_vehicles": 22854 }, "geometry": { "type": "Point", "coordinates": [ 431999.633777414972428, 439381.802113120094873 ] } },
{ "type": "Feature", "properties": { "count_point_id": 95068, "year": 2024, "local_authority_name": "Leeds", "road_name": "A61", "road_category": "PA", "road_type": "Major", "latitude": 53.75671523, "longitude": -1.505069397, "aadt_pedal_cycles": 49, "aadt_all_motor_vehicles": 10326 }, "geometry": { "type": "Point", "coordinates": [ 432729.73324066324858, 429041.82248878700193 ] } },
{ "type": "Feature", "properties": { "count_point_id": 95069, "year": 2024, "local_authority_name": "Leeds", "road_name": "A639", "road_category": "PA", "road_type": "Major", "latitude": 53.76291182, "longitude": -1.503828471, "aadt_pedal_cycles": 2, "aadt_all_motor_vehicles": 14603 }, "geometry": { "type": "Point", "coordinates": [ 432806.73757673293585, 429731.81343891331926 ] } },
{ "type": "Feature", "properties": { "count_point_id": 95070, "year": 2024, "local_authority_name": "Leeds", "road_name": "A61", "road_category": "PA", "road_type": "Major", "latitude": 53.76230024, "longitude": -1.508098286, "aadt_pedal_cycles": 37, "aadt_all_motor_vehicles": 10517 }, "geometry": { "type": "Point", "coordinates": [ 432525.730953254271299, 429661.813583346898668 ] } },
{ "type": "Feature", "properties": { "count_point_id": 95071, "year": 2024, "local_authority_name": "Leeds", "road_name": "A639", "road_category": "PA", "road_type": "Major", "latitude": 53.76263005, "longitude": -1.500904072, "aadt_pedal_cycles": 10, "aadt_all_motor_vehicles": 13389 }, "geometry": { "type": "Point", "coordinates": [ 432999.741852246574126, 429701.814094557194039 ] } },
{ "type": "Feature", "properties": { "count_point_id": 95072, "year": 2024, "local_authority_name": "Leeds", "road_name": "A61", "road_category": "PA", "road_type": "Major", "latitude": 53.76216942, "longitude": -1.504701878, "aadt_pedal_cycles": 7, "aadt_all_motor_vehicles": 3233 }, "geometry": { "type": "Point", "coordinates": [ 432749.735890121082775, 429648.813812491600402 ] } },
{ "type": "Feature", "properties": { "count_point_id": 96066, "year": 2024, "local_authority_name": "Leeds", "road_name": "A61", "road_category": "PA", "road_type": "Major", "latitude": 53.79162943, "longitude": -1.537857158, "aadt_pedal_cycles": 12, "aadt_all_motor_vehicles": 10752 }, "geometry": { "type": "Point", "coordinates": [ 430542.69567368197022, 432911.769303550710902 ] } },
{ "type": "Feature", "properties": { "count_point_id": 96194, "year": 2024, "local_authority_name": "Leeds", "road_name": "M621", "road_category": "TM", "road_type": "Major", "latitude": 53.78076385, "longitude": -1.5620905, "aadt_pedal_cycles": 0, "aadt_all_motor_vehicles": 78693 }, "geometry": { "type": "Point", "coordinates": [ 428953.706768977746833, 431692.765959334326908 ] } },
{ "type": "Feature", "properties": { "count_point_id": 99158, "year": 2024, "local_authority_name": "Leeds", "road_name": "A650", "road_category": "PA", "road_type": "Major", "latitude": 53.74981761, "longitude": -1.637536636, "aadt_pedal_cycles": 18, "aadt_all_motor_vehicles": 25168 }, "geometry": { "type": "Point", "coordinates": [ 423999.743965929374099, 428221.730505860294215 ] } },
{ "type": "Feature", "properties": { "count_point_id": 99526, "year": 2024, "local_authority_name": "Leeds", "road_name": "M1", "road_category": "TM", "road_type": "Major", "latitude": 53.74471696, "longitude": -1.516279129, "aadt_pedal_cycles": 0, "aadt_all_motor_vehicles": 156856 }, "geometry": { "type": "Point", "coordinates": [ 431999.732863078301307, 427701.831526605994441 ] } },
{ "type": "Feature", "properties": { "count_point_id": 99527, "year": 2024, "local_authority_name": "Leeds", "road_name": "A63", "road_category": "PA", "road_type": "Major", "latitude": 53.78985375, "longitude": -1.420633899, "aadt_pedal_cycles": 62, "aadt_all_motor_vehicles": 33086 }, "geometry": { "type": "Point", "coordinates": [ 438266.69208119699033, 432770.815948737203144 ] } },
{ "type": "Feature", "properties": { "count_point_id": 99546, "year": 2024, "local_authority_name": "Leeds", "road_name": "M1", "road_category": "TM", "road_type": "Major", "latitude": 53.76177623, "longitude": -1.500914201, "aadt_pedal_cycles": 0, "aadt_all_motor_vehicles": 90761 }, "geometry": { "type": "Point", "coordinates": [ 432999.741190659929998, 429606.815031756297685 ] } },
{ "type": "Feature", "properties": { "count_point_id": 99547, "year": 2024, "local_authority_name": "Leeds", "road_name": "M1", "road_category": "TM", "road_type": "Major", "latitude": 53.77093901, "longitude": -1.478608451, "aadt_pedal_cycles": 0, "aadt_all_motor_vehicles": 99883 }, "geometry": { "type": "Point", "coordinates": [ 434462.754897190257907, 430636.804971337784082 ] } },
{ "type": "Feature", "properties": { "count_point_id": 99548, "year": 2024, "local_authority_name": "Leeds", "road_name": "M1", "road_category": "TM", "road_type": "Major", "latitude": 53.7795768, "longitude": -1.429258281, "aadt_pedal_cycles": 0, "aadt_all_motor_vehicles": 102882 }, "geometry": { "type": "Point", "coordinates": [ 437707.7014425714151, 431622.822783516952768 ] } },
{ "type": "Feature", "properties": { "count_point_id": 802143, "year": 2024, "local_authority_name": "Leeds", "road_name": "U", "road_category": "MCU", "road_type": "Minor", "latitude": 53.73499596, "longitude": -1.49334828, "aadt_pedal_cycles": 21, "aadt_all_motor_vehicles": 2772 }, "geometry": { "type": "Point", "coordinates": [ 433519.756550155463628, 426630.830600993009284 ] } },
{ "type": "Feature", "properties": { "count_point_id": 803714, "year": 2024, "local_authority_name": "Leeds", "road_name": "U", "road_category": "MCU", "road_type": "Minor", "latitude": 53.74383126, "longitude": -1.544961328, "aadt_pedal_cycles": 82, "aadt_all_motor_vehicles": 1196 }, "geometry": { "type": "Point", "coordinates": [ 430108.737403001519851, 427590.800787818036042 ] } },
{ "type": "Feature", "properties": { "count_point_id": 803718, "year": 2024, "local_authority_name": "Leeds", "road_name": "U", "road_category": "MCU", "road_type": "Minor", "latitude": 53.82598507, "longitude": -1.690098714, "aadt_pedal_cycles": 2, "aadt_all_motor_vehicles": 1374 }, "geometry": { "type": "Point", "coordinates": [ 420496.662380256166216, 436679.683245464228094 ] } },
{ "type": "Feature", "properties": { "count_point_id": 803719, "year": 2024, "local_authority_name": "Leeds", "road_name": "U", "road_category": "MCU", "road_type": "Minor", "latitude": 53.81383526, "longitude": -1.639157891, "aadt_pedal_cycles": 32, "aadt_all_motor_vehicles": 4860 }, "geometry": { "type": "Point", "coordinates": [ 423856.669353611127008, 435343.729568935348652 ] } },
{ "type": "Feature", "properties": { "count_point_id": 803720, "year": 2024, "local_authority_name": "Leeds", "road_name": "U", "road_category": "MCU", "road_type": "Minor", "latitude": 53.80859164, "longitude": -1.574799406, "aadt_pedal_cycles": 205, "aadt_all_motor_vehicles": 9814 }, "geometry": { "type": "Point", "coordinates": [ 428097.726331510173623, 434783.773073151824065 ] } },
{ "type": "Feature", "properties": { "count_point_id": 803721, "year": 2024, "local_authority_name": "Leeds", "road_name": "U", "road_category": "MCU", "road_type": "Minor", "latitude": 53.80400953, "longitude": -1.489920678, "aadt_pedal_cycles": 54, "aadt_all_motor_vehicles": 8386 }, "geometry": { "type": "Point", "coordinates": [ 433690.750333194504492, 434310.770073836669326 ] } },
{ "type": "Feature", "properties": { "count_point_id": 803722, "year": 2024, "local_authority_name": "Leeds", "road_name": "U", "road_category": "MCU", "road_type": "Minor", "latitude": 53.84901239, "longitude": -1.583070718, "aadt_pedal_cycles": 24, "aadt_all_motor_vehicles": 1904 }, "geometry": { "type": "Point", "coordinates": [ 427526.648386800196022, 439277.74509025097359 ] } },
{ "type": "Feature", "properties": { "count_point_id": 803725, "year": 2024, "local_authority_name": "Leeds", "road_name": "U", "road_category": "MCU", "road_type": "Minor", "latitude": 53.77210165, "longitude": -1.513612866, "aadt_pedal_cycles": 27, "aadt_all_motor_vehicles": 3049 }, "geometry": { "type": "Point", "coordinates": [ 432154.726620843808632, 430749.799175970489159 ] } },
{ "type": "Feature", "properties": { "count_point_id": 803728, "year": 2024, "local_authority_name": "Leeds", "road_name": "U", "road_category": "MCU", "road_type": "Minor", "latitude": 53.72742663, "longitude": -1.579239965, "aadt_pedal_cycles": 31, "aadt_all_motor_vehicles": 3499 }, "geometry": { "type": "Point", "coordinates": [ 427858.769160763535183, 425751.730275878566317 ] } },
{ "type": "Feature", "properties": { "count_point_id": 803729, "year": 2024, "local_authority_name": "Leeds", "road_name": "U", "road_category": "MCU", "road_type": "Minor", "latitude": 53.751094, "longitude": -1.533327275, "aadt_pedal_cycles": 48, "aadt_all_motor_vehicles": 4819 }, "geometry": { "type": "Point", "coordinates": [ 430870.729366598301567, 428403.812465129769407 ] } },
{ "type": "Feature", "properties": { "count_point_id": 803731, "year": 2024, "local_authority_name": "Leeds", "road_name": "U", "road_category": "MCU", "road_type": "Minor", "latitude": 53.77532691, "longitude": -1.562313861, "aadt_pedal_cycles": 117, "aadt_all_motor_vehicles": 9222 }, "geometry": { "type": "Point", "coordinates": [ 428942.7141046395991, 431087.768586858874187 ] } },
{ "type": "Feature", "properties": { "count_point_id": 803734, "year": 2024, "local_authority_name": "Leeds", "road_name": "U", "road_category": "MCU", "road_type": "Minor", "latitude": 53.79140619, "longitude": -1.699885189, "aadt_pedal_cycles": 41, "aadt_all_motor_vehicles": 1129 }, "geometry": { "type": "Point", "coordinates": [ 419868.724031223624479, 432829.679718255996704 ] } },
{ "type": "Feature", "properties": { "count_point_id": 803740, "year": 2024, "local_authority_name": "Leeds", "road_name": "U", "road_category": "MCU", "road_type": "Minor", "latitude": 53.79928619, "longitude": -1.547004118, "aadt_pedal_cycles": 606, "aadt_all_motor_vehicles": 889 }, "geometry": { "type": "Point", "coordinates": [ 429934.682618940540124, 433759.771418814780191 ] } },
{ "type": "Feature", "properties": { "count_point_id": 803742, "year": 2024, "local_authority_name": "Leeds", "road_name": "U", "road_category": "MCU", "road_type": "Minor", "latitude": 53.78594411, "longitude": -1.529647659, "aadt_pedal_cycles": 37, "aadt_all_motor_vehicles": 612 }, "geometry": { "type": "Point", "coordinates": [ 431087.706412809842732, 432282.777008866309188 ] } },
{ "type": "Feature", "properties": { "count_point_id": 803743, "year": 2024, "local_authority_name": "Leeds", "road_name": "U", "road_category": "MCU", "road_type": "Minor", "latitude": 53.81704325, "longitude": -1.548514082, "aadt_pedal_cycles": 217, "aadt_all_motor_vehicles": 13937 }, "geometry": { "type": "Point", "coordinates": [ 429822.67079592961818, 435734.773948002490215 ] } },
{ "type": "Feature", "properties": { "count_point_id": 803745, "year": 2024, "local_authority_name": "Leeds", "road_name": "U", "road_category": "MCU", "road_type": "Minor", "latitude": 53.81167159, "longitude": -1.499456491, "aadt_pedal_cycles": 60, "aadt_all_motor_vehicles": 8789 }, "geometry": { "type": "Point", "coordinates": [ 433056.731238513137214, 435158.775102376122959 ] } },
{ "type": "Feature", "properties": { "count_point_id": 803746, "year": 2024, "local_authority_name": "Leeds", "road_name": "U", "road_category": "MCU", "road_type": "Minor", "latitude": 53.84520101, "longitude": -1.50035023, "aadt_pedal_cycles": 81, "aadt_all_motor_vehicles": 8814 }, "geometry": { "type": "Point", "coordinates": [ 432971.633867735450622, 438888.820706164231524 ] } },
{ "type": "Feature", "properties": { "count_point_id": 803752, "year": 2024, "local_authority_name": "Leeds", "road_name": "U", "road_category": "MCU", "road_type": "Minor", "latitude": 53.80377657, "longitude": -1.604455884, "aadt_pedal_cycles": 95, "aadt_all_motor_vehicles": 7888 }, "geometry": { "type": "Point", "coordinates": [ 426147.790893327444792, 434236.769916121382266 ] } },
{ "type": "Feature", "properties": { "count_point_id": 806485, "year": 2024, "local_authority_name": "Leeds", "road_name": "U", "road_category": "MCU", "road_type": "Minor", "latitude": 53.74392921, "longitude": -1.584503498, "aadt_pedal_cycles": 16, "aadt_all_motor_vehicles": 4206 }, "geometry": { "type": "Point", "coordinates": [ 427500.760619138600305, 427585.73195028596092 ] } },
{ "type": "Feature", "properties": { "count_point_id": 806635, "year": 2024, "local_authority_name": "Leeds", "road_name": "C", "road_category": "MCU", "road_type": "Minor", "latitude": 53.77726819, "longitude": -1.40910711, "aadt_pedal_cycles": 7, "aadt_all_motor_vehicles": 4722 }, "geometry": { "type": "Point", "coordinates": [ 439037.724594997416716, 431376.826849081320688 ] } },
{ "type": "Feature", "properties": { "count_point_id": 806765, "year": 2024, "local_authority_name": "Leeds", "road_name": "U", "road_category": "MCU", "road_type": "Minor", "latitude": 53.79860497, "longitude": -1.452517463, "aadt_pedal_cycles": 12, "aadt_all_motor_vehicles": 690 }, "geometry": { "type": "Point", "coordinates": [ 436158.691873128933366, 433727.804129429510795 ] } },
{ "type": "Feature", "properties": { "count_point_id": 806840, "year": 2024, "local_authority_name": "Leeds", "road_name": "U", "road_category": "MCU", "road_type": "Minor", "latitude": 53.72442224, "longitude": -1.575996381, "aadt_pedal_cycles": 39, "aadt_all_motor_vehicles": 3539 }, "geometry": { "type": "Point", "coordinates": [ 428074.768741534673609, 425418.739724662387744 ] } },
{ "type": "Feature", "properties": { "count_point_id": 807180, "year": 2024, "local_authority_name": "Leeds", "road_name": "U", "road_category": "MCU", "road_type": "Minor", "latitude": 53.7976724, "longitude": -1.672893348, "aadt_pedal_cycles": 33, "aadt_all_motor_vehicles": 4639 }, "geometry": { "type": "Point", "coordinates": [ 421643.695843889785465, 433534.701221180846915 ] } },
{ "type": "Feature", "properties": { "count_point_id": 807225, "year": 2024, "local_authority_name": "Leeds", "road_name": "U", "road_category": "MCU", "road_type": "Minor", "latitude": 53.84150291, "longitude": -1.54224853, "aadt_pedal_cycles": 19, "aadt_all_motor_vehicles": 174 }, "geometry": { "type": "Point", "coordinates": [ 430217.640396538306959, 438458.784482435206883 ] } },
{ "type": "Feature", "properties": { "count_point_id": 807331, "year": 2024, "local_authority_name": "Leeds", "road_name": "U", "road_category": "MCU", "road_type": "Minor", "latitude": 53.82275569, "longitude": -1.462365771, "aadt_pedal_cycles": 9, "aadt_all_motor_vehicles": 306 }, "geometry": { "type": "Point", "coordinates": [ 435489.67798361799214, 436409.829175048740581 ] } },
{ "type": "Feature", "properties": { "count_point_id": 807333, "year": 2024, "local_authority_name": "Leeds", "road_name": "U", "road_category": "MCU", "road_type": "Minor", "latitude": 53.79332922, "longitude": -1.652934891, "aadt_pedal_cycles": 52, "aadt_all_motor_vehicles": 4689 }, "geometry": { "type": "Point", "coordinates": [ 422960.691500168351922, 433057.718129287939519 ] } },
{ "type": "Feature", "properties": { "count_point_id": 807884, "year": 2024, "local_authority_name": "Leeds", "road_name": "B6157", "road_category": "MB", "road_type": "Minor", "latitude": 53.82842433, "longitude": -1.566182593, "aadt_pedal_cycles": 173, "aadt_all_motor_vehicles": 15430 }, "geometry": { "type": "Point", "coordinates": [ 428651.677156703721266, 436993.777806764119305 ] } },
{ "type": "Feature", "properties": { "count_point_id": 808092, "year": 2024, "local_authority_name": "Leeds", "road_name": "U", "road_category": "MCU", "road_type": "Minor", "latitude": 53.82688505, "longitude": -1.479571511, "aadt_pedal_cycles": 46, "aadt_all_motor_vehicles": 554 }, "geometry": { "type": "Point", "coordinates": [ 434353.678137069568038, 436860.820522997993976 ] } },
{ "type": "Feature", "properties": { "count_point_id": 808450, "year": 2024, "local_authority_name": "Leeds", "road_name": "U", "road_category": "MCU", "road_type": "Minor", "latitude": 53.81123532, "longitude": -1.629459852, "aadt_pedal_cycles": 44, "aadt_all_motor_vehicles": 5043 }, "geometry": { "type": "Point", "coordinates": [ 424496.728126979724038, 435057.74838734336663 ] } },
{ "type": "Feature", "properties": { "count_point_id": 808680, "year": 2024, "local_authority_name": "Leeds", "road_name": "C", "road_category": "MCU", "road_type": "Minor", "latitude": 53.85285626, "longitude": -1.623073592, "aadt_pedal_cycles": 53, "aadt_all_motor_vehicles": 4889 }, "geometry": { "type": "Point", "coordinates": [ 424892.669565143820364, 439690.703224582248367 ] } },
{ "type": "Feature", "properties": { "count_point_id": 808699, "year": 2024, "local_authority_name": "Leeds", "road_name": "U", "road_category": "MCU", "road_type": "Minor", "latitude": 53.84462013, "longitude": -1.521057912, "aadt_pedal_cycles": 80, "aadt_all_motor_vehicles": 12447 }, "geometry": { "type": "Point", "coordinates": [ 431609.634513645840343, 438814.802640918293037 ] } },
{ "type": "Feature", "properties": { "count_point_id": 808759, "year": 2024, "local_authority_name": "Leeds", "road_name": "U", "road_category": "MCU", "road_type": "Minor", "latitude": 53.85180192, "longitude": -1.541953884, "aadt_pedal_cycles": 51, "aadt_all_motor_vehicles": 4227 }, "geometry": { "type": "Point", "coordinates": [ 430229.635509712970816, 439604.77578604221344 ] } },
{ "type": "Feature", "properties": { "count_point_id": 808912, "year": 2024, "local_authority_name": "Leeds", "road_name": "B6159", "road_category": "MB", "road_type": "Minor", "latitude": 53.79748254, "longitude": -1.450786193, "aadt_pedal_cycles": 67, "aadt_all_motor_vehicles": 15515 }, "geometry": { "type": "Point", "coordinates": [ 436273.690197535906918, 433603.804539648001082 ] } },
{ "type": "Feature", "properties": { "count_point_id": 809937, "year": 2024, "local_authority_name": "Leeds", "road_name": "U", "road_category": "MCU", "road_type": "Minor", "latitude": 53.83433814, "longitude": -1.54902746, "aadt_pedal_cycles": 16, "aadt_all_motor_vehicles": 1033 }, "geometry": { "type": "Point", "coordinates": [ 429776.652151666698046, 437658.779874655068852 ] } },
{ "type": "Feature", "properties": { "count_point_id": 809986, "year": 2024, "local_authority_name": "Leeds", "road_name": "U", "road_category": "MCU", "road_type": "Minor", "latitude": 53.74322671, "longitude": -1.597277002, "aadt_pedal_cycles": 4, "aadt_all_motor_vehicles": 2475 }, "geometry": { "type": "Point", "coordinates": [ 426658.757290443929378, 427502.725480381050147 ] } },
{ "type": "Feature", "properties": { "count_point_id": 810265, "year": 2024, "local_authority_name": "Leeds", "road_name": "U", "road_category": "MCU", "road_type": "Minor", "latitude": 53.82283831, "longitude": -1.598489185, "aadt_pedal_cycles": 12, "aadt_all_motor_vehicles": 370 }, "geometry": { "type": "Point", "coordinates": [ 426528.763782457448542, 436359.773460709024221 ] } },
{ "type": "Feature", "properties": { "count_point_id": 810364, "year": 2024, "local_authority_name": "Leeds", "road_name": "C", "road_category": "MCU", "road_type": "Minor", "latitude": 53.8374735, "longitude": -1.541517339, "aadt_pedal_cycles": 34, "aadt_all_motor_vehicles": 8035 }, "geometry": { "type": "Point", "coordinates": [ 430268.647214875905775, 438010.783906504861079 ] } },
{ "type": "Feature", "properties": { "count_point_id": 810452, "year": 2024, "local_authority_name": "Leeds", "road_name": "B6135", "road_category": "MB", "road_type": "Minor", "latitude": 53.75175685, "longitude": -1.648878626, "aadt_pedal_cycles": 52, "aadt_all_motor_vehicles": 7083 }, "geometry": { "type": "Point", "coordinates": [ 423250.747728683461901, 428433.734163831104524 ] } },
{ "type": "Feature", "properties": { "count_point_id": 812215, "year": 2024, "local_authority_name": "Leeds", "road_name": "U", "road_category": "MCU", "road_type": "Minor", "latitude": 53.78725101, "longitude": -1.589433779, "aadt_pedal_cycles": 28, "aadt_all_motor_vehicles": 7184 }, "geometry": { "type": "Point", "coordinates": [ 427147.754419867997058, 432403.763685559737496 ] } }
]
}
