{
"type": "FeatureCollection",
"name": "leuven_gravity_zones",
"crs": { "type": "name", "properties": { "name": "urn:ogc:def:crs:EPSG::32631" } },
"features": [
{ "type": "Feature", "properties": { "geo_code": "Z1545_14089", "geo_name": "Z1545_14089" }, "geometry": { "type": "Polygon", "coordinates": [ [ [ 618400.0, 5635600.0 ], [ 618400.0, 5636000.0 ], [ 618000.0, 5636000.0 ], [ 618000.0, 5635600.0 ], [ 618400.0, 5635600.0 ] ] ] } },
{ "type": "Feature", "properties": { "geo_code": "Z1545_14090", "geo_name": "Z1545_14090" }, "geometry": { "type": "Polygon", "coordinates": [ [ [ 618400.0, 5636000.0 ], [ 618400.0, 5636400.0 ], [ 618000.0, 5636400.0 ], [ 618000.0, 5636000.0 ], [ 618400.0, 5636000.0 ] ] ] } },
{ "type": "Feature", "properties": { "geo_code": "Z1545_14091", "geo_name": "Z1545_14091" }, "geometry": { "type": "Polygon", "coordinates": [ [ [ 618400.0, 5636400.0 ], [ 618400.0, 5636800.0 ], [ 618000.0, 5636800.0 ], [ 618000.0, 5636400.0 ], [ 618400.0, 5636400.0 ] ] ] } },
{ "type": "Feature", "properties": { "geo_code": "Z1545_14092", "geo_name": "Z1545_14092" }, "geometry": { "type": "Polygon", "coordinates": [ [ [ 618400.0, 5636800.0 ], [ 618400.0, 5637200.0 ], [ 618000.0, 5637200.0 ], [ 618000.0, 5636800.0 ], [ 618400.0, 5636800.0 ] ] ] } },
{ "type": "Feature", "properties": { "geo_code": "Z1545_14093", "geo_name": "Z1545_14093" }, "geometry": { "type": "Polygon", "coordinates": [ [ [ 618400.0, 5637200.0 ], [ 618400.0, 5637600.0 ], [ 618000.0, 5637600.0 ], [ 618000.0, 5637200.0 ], [ 618400.0, 5637200.0 ] ] ] } },
{ "type": "Feature", "properties": { "geo_code": "Z1545_14094", "geo_name": "Z1545_14094" }, "geometry": { "type": "Polygon", "coordinates": [ [ [ 618400.0, 5637600.0 ], [ 618400.0, 5638000.0 ], [ 618000.0, 5638000.0 ], [ 618000.0, 5637600.0 ], [ 618400.0, 5637600.0 ] ] ] } },
{ "type": "Feature", "properties": { "geo_code": "Z1545_14095", "geo_name": "Z1545_14095" }, "geometry": { "type": "Polygon", "coordinates": [ [ [ 618400.0, 5638000.0 ], [ 618400.0, 5638400.0 ], [ 618000.0, 5638400.0 ], [ 618000.0, 5638000.0 ], [ 618400.0, 5638000.0 ] ] ] } },
{ "type": "Feature", "properties": { "geo_code": "Z1545_14096", "geo_name": "Z1545_14096" }, "geometry": { "type": "Polygon", "coordinates": [ [ [ 618400.0, 5638400.0 ], [ 618400.0, 5638800.0 ], [ 618000.0, 5638800.0 ], [ 618000.0, 5638400.0 ], [ 618400.0, 5638400.0 ] ] ] } },
{ "type": "Feature", "properties": { "geo_code": "Z1545_14097", "geo_name": "Z1545_14097" }, "geometry": { "type": "Polygon", "coordinates": [ [ [ 618400.0, 5638800.0 ], [ 618400.0, 5639200.0 ], [ 618000.0, 5639200.0 ], [ 618000.0, 5638800.0 ], [ 618400.0, 5638800.0 ] ] ] } },
{ "type": "Feature", "properties": { "geo_code": "Z1545_14098", "geo_name": "Z1545_14098" }, "geometry": { "type": "Polygon", "coordinates": [ [ [ 618400.0, 5639200.0 ], [ 618400.0, 5639600.0 ], [ 618000.0, 5639600.0 ], [ 618000.0, 5639200.0 ], [ 618400.0, 5639200.0 ] ] ] } },
{ "type": "Feature", "properties": { "geo_code": "Z1545_14099", "geo_name": "Z1545_14099" }, "geometry": { "type": "Polygon", "coordinates": [ [ [ 618400.0, 5639600.0 ], [ 618400.0, 5640000.0 ], [ 618000.0, 5640000.0 ], [ 618000.0, 5639600.0 ], [ 618400.0, 5639600.0 ] ] ] } },
{ "type": "Feature", "properties": { "geo_code": "Z1545_14100", "geo_name": "Z1545_14100" }, "geometry": { "type": "Polygon", "coordinates": [ [ [ 618400.0, 5640000.0 ], [ 618400.0, 5640400.0 ], [ 618000.0, 5640400.0 ], [ 618000.0, 5640000.0 ], [ 618400.0, 5640000.0 ] ] ] } },
{ "type": "Feature", "properties": { "geo_code": "Z1546_14089", "geo_name": "Z1546_14089" }, "geometry": { "type": "Polygon", "coordinates": [ [ [ 618800.0, 5635600.0 ], [ 618800.0, 5636000.0 ], [ 618400.0, 5636000.0 ], [ 618400.0, 5635600.0 ], [ 618800.0, 5635600.0 ] ] ] } },
{ "type": "Feature", "properties": { "geo_code": "Z1546_14090", "geo_name": "Z1546_14090" }, "geometry": { "type": "Polygon", "coordinates": [ [ [ 618800.0, 5636000.0 ], [ 618800.0, 5636400.0 ], [ 618400.0, 5636400.0 ], [ 618400.0, 5636000.0 ], [ 618800.0, 5636000.0 ] ] ] } },
{ "type": "Feature", "properties": { "geo_code": "Z1546_14091", "geo_name": "Z1546_14091" }, "geometry": { "type": "Polygon", "coordinates": [ [ [ 618800.0, 5636400.0 ], [ 618800.0, 5636800.0 ], [ 618400.0, 5636800.0 ], [ 618400.0, 5636400.0 ], [ 618800.0, 5636400.0 ] ] ] } },
{ "type": "Feature", "properties": { "geo_code": "Z1546_14092", "geo_name": "Z1546_14092" }, "geometry": { "type": "Polygon", "coordinates": [ [ [ 618800.0, 5636800.0 ], [ 618800.0, 5637200.0 ], [ 618400.0, 5637200.0 ], [ 618400.0, 5636800.0 ], [ 618800.0, 5636800.0 ] ] ] } },
{ "type": "Feature", "properties": { "geo_code": "Z1546_14093", "geo_name": "Z1546_14093" }, "geometry": { "type": "Polygon", "coordinates": [ [ [ 618800.0, 5637200.0 ], [ 618800.0, 5637600.0 ], [ 618400.0, 5637600.0 ], [ 618400.0, 5637200.0 ], [ 618800.0, 5637200.0 ] ] ] } },
{ "type": "Feature", "properties": { "geo_code": "Z1546_14094", "geo_name": "Z1546_14094" }, "geometry": { "type": "Polygon", "coordinates": [ [ [ 618800.0, 5637600.0 ], [ 618800.0, 5638000.0 ], [ 618400.0, 5638000.0 ], [ 618400.0, 5637600.0 ], [ 618800.0, 5637600.0 ] ] ] } },
{ "type": "Feature", "properties": { "geo_code": "Z1546_14095", "geo_name": "Z1546_14095" }, "geometry": { "type": "Polygon", "coordinates": [ [ [ 618800.0, 5638000.0 ], [ 618800.0, 5638400.0 ], [ 618400.0, 5638400.0 ], [ 618400.0, 5638000.0 ], [ 618800.0, 5638000.0 ] ] ] } },
{ "type": "Feature", "properties": { "geo_code": "Z1546_14096", "geo_name": "Z1546_14096" }, "geometry": { "type": "Polygon", "coordinates": [ [ [ 618800.0, 5638400.0 ], [ 618800.0, 5638800.0 ], [ 618400.0, 5638800.0 ], [ 618400.0, 5638400.0 ], [ 618800.0, 5638400.0 ] ] ] } },
{ "type": "Feature", "properties": { "geo_code": "Z1546_14097", "geo_name": "Z1546_14097" }, "geometry": { "type": "Polygon", "coordinates": [ [ [ 618800.0, 5638800.0 ], [ 618800.0, 5639200.0 ], [ 618400.0, 5639200.0 ], [ 618400.0, 5638800.0 ], [ 618800.0, 5638800.0 ] ] ] } },
{ "type": "Feature", "properties": { "geo_code": "Z1546_14098", "geo_name": "Z1546_14098" }, "geometry": { "type": "Polygon", "coordinates": [ [ [ 618800.0, 5639200.0 ], [ 618800.0, 5639600.0 ], [ 618400.0, 5639600.0 ], [ 618400.0, 5639200.0 ], [ 618800.0, 5639200.0 ] ] ] } },
{ "type": "Feature", "properties": { "geo_code": "Z1546_14099", "geo_name": "Z1546_14099" }, "geometry": { "type": "Polygon", "coordinates": [ [ [ 618800.0, 5639600.0 ], [ 618800.0, 5640000.0 ], [ 618400.0, 5640000.0 ], [ 618400.0, 5639600.0 ], [ 618800.0, 5639600.0 ] ] ] } },
{ "type": "Feature", "properties": { "geo_code": "Z1546_14100", "geo_name": "Z1546_14100" }, "geometry": { "type": "Polygon", "coordinates": [ [ [ 618800.0, 5640000.0 ], [ 618800.0, 5640400.0 ], [ 618400.0, 5640400.0 ], [ 618400.0, 5640000.0 ], [ 618800.0, 5640000.0 ] ] ] } },
{ "type": "Feature", "properties": { "geo_code": "Z1547_14089", "geo_name": "Z1547_14089" }, "geometry": { "type": "Polygon", "coordinates": [ [ [ 619200.0, 5635600.0 ], [ 619200.0, 5636000.0 ], [ 618800.0, 5636000.0 ], [ 618800.0, 5635600.0 ], [ 619200.0, 5635600.0 ] ] ] } },
{ "type": "Feature", "properties": { "geo_code": "Z1547_14090", "geo_name": "Z1547_14090" }, "geometry": { "type": "Polygon", "coordinates": [ [ [ 619200.0, 5636000.0 ], [ 619200.0, 5636400.0 ], [ 618800.0, 5636400.0 ], [ 618800.0, 5636000.0 ], [ 619200.0, 5636000.0 ] ] ] } },
{ "type": "Feature", "properties": { "geo_code": "Z1547_14091", "geo_name": "Z1547_14091" }, "geometry": { "type": "Polygon", "coordinates": [ [ [ 619200.0, 5636400.0 ], [ 619200.0, 5636800.0 ], [ 618800.0, 5636800.0 ], [ 618800.0, 5636400.0 ], [ 619200.0, 5636400.0 ] ] ] } },
{ "type": "Feature", "properties": { "geo_code": "Z1547_14092", "geo_name": "Z1547_14092" }, "geometry": { "type": "Polygon", "coordinates": [ [ [ 619200.0, 5636800.0 ], [ 619200.0, 5637200.0 ], [ 618800.0, 5637200.0 ], [ 618800.0, 5636800.0 ], [ 619200.0, 5636800.0 ] ] ] } },
{ "type": "Feature", "properties": { "geo_code": "Z1547_14093", "geo_name": "Z1547_14093" }, "geometry": { "type": "Polygon", "coordinates": [ [ [ 619200.0, 5637200.0 ], [ 619200.0, 5637600.0 ], [ 618800.0, 5637600.0 ], [ 618800.0, 5637200.0 ], [ 619200.0, 5637200.0 ] ] ] } },
{ "type": "Feature", "properties": { "geo_code": "Z1547_14094", "geo_name": "Z1547_14094" }, "geometry": { "type": "Polygon", "coordinates": [ [ [ 619200.0, 5637600.0 ], [ 619200.0, 5638000.0 ], [ 618800.0, 5638000.0 ], [ 618800.0, 5637600.0 ], [ 619200.0, 5637600.0 ] ] ] } },
{ "type": "Feature", "properties": { "geo_code": "Z1547_14095", "geo_name": "Z1547_14095" }, "geometry": { "type": "Polygon", "coordinates": [ [ [ 619200.0, 5638000.0 ], [ 619200.0, 5638400.0 ], [ 618800.0, 5638400.0 ], [ 618800.0, 5638000.0 ], [ 619200.0, 5638000.0 ] ] ] } },
{ "type": "Feature", "properties": { "geo_code": "Z1547_14096", "geo_name": "Z1547_14096" }, "geometry": { "type": "Polygon", "coordinates": [ [ [ 619200.0, 5638400.0 ], [ 619200.0, 5638800.0 ], [ 618800.0, 5638800.0 ], [ 618800.0, 5638400.0 ], [ 619200.0, 5638400.0 ] ] ] } },
{ "type": "Feature", "properties": { "geo_code": "Z1547_14097", "geo_name": "Z1547_14097" }, "geometry": { "type": "Polygon", "coordinates": [ [ [ 619200.0, 5638800.0 ], [ 619200.0, 5639200.0 ], [ 618800.0, 5639200.0 ], [ 618800.0, 5638800.0 ], [ 619200.0, 5638800.0 ] ] ] } },
{ "type": "Feature", "properties": { "geo_code": "Z1547_14098", "geo_name": "Z1547_14098" }, "geometry": { "type": "Polygon", "coordinates": [ [ [ 619200.0, 5639200.0 ], [ 619200.0, 5639600.0 ], [ 618800.0, 5639600.0 ], [ 618800.0, 5639200.0 ], [ 619200.0, 5639200.0 ] ] ] } },
{ "type": "Feature", "properties": { "geo_code": "Z1547_14099", "geo_name": "Z1547_14099" }, "geometry": { "type": "Polygon", "coordinates": [ [ [ 619200.0, 5639600.0 ], [ 619200.0, 5640000.0 ], [ 618800.0, 5640000.0 ], [ 618800.0, 5639600.0 ], [ 619200.0, 5639600.0 ] ] ] } },
{ "type": "Feature", "properties": { "geo_code": "Z1547_14100", "geo_name": "Z1547_14100" }, "geometry": { "type": "Polygon", "coordinates": [ [ [ 619200.0, 5640000.0 ], [ 619200.0, 5640400.0 ], [ 618800.0, 5640400.0 ], [ 618800.0, 5640000.0 ], [ 619200.0, 5640000.0 ] ] ] } },
{ "type": "Feature", "properties": { "geo_code": "Z1548_14089", "geo_name": "Z1548_14089" }, "geometry": { "type": "Polygon", "coordinates": [ [ [ 619600.0, 5635600.0 ], [ 619600.0, 5636000.0 ], [ 619200.0, 5636000.0 ], [ 619200.0, 5635600.0 ], [ 619600.0, 5635600.0 ] ] ] } },
{ "type": "Feature", "properties": { "geo_code": "Z1548_14090", "geo_name": "Z1548_14090" }, "geometry": { "type": "Polygon", "coordinates": [ [ [ 619600.0, 5636000.0 ], [ 619600.0, 5636400.0 ], [ 619200.0, 5636400.0 ], [ 619200.0, 5636000.0 ], [ 619600.0, 5636000.0 ] ] ] } },
{ "type": "Feature", "properties": { "geo_code": "Z1548_14091", "geo_name": "Z1548_14091" }, "geometry": { "type": "Polygon", "coordinates": [ [ [ 619600.0, 5636400.0 ], [ 619600.0, 5636800.0 ], [ 619200.0, 5636800.0 ], [ 619200.0, 5636400.0 ], [ 619600.0, 5636400.0 ] ] ] } },
{ "type": "Feature", "properties": { "geo_code": "Z1548_14092", "geo_name": "Z1548_14092" }, "geometry": { "type": "Polygon", "coordinates": [ [ [ 619600.0, 5636800.0 ], [ 619600.0, 5637200.0 ], [ 619200.0, 5637200.0 ], [ 619200.0, 5636800.0 ], [ 619600.0, 5636800.0 ] ] ] } },
{ "type": "Feature", "properties": { "geo_code": "Z1548_14093", "geo_name": "Z1548_14093" }, "geometry": { "type": "Polygon", "coordinates": [ [ [ 619600.0, 5637200.0 ], [ 619600.0, 5637600.0 ], [ 619200.0, 5637600.0 ], [ 619200.0, 5637200.0 ], [ 619600.0, 5637200.0 ] ] ] } },
{ "type": "Feature", "properties": { "geo_code": "Z1548_14094", "geo_name": "Z1548_14094" }, "geometry": { "type": "Polygon", "coordinates": [ [ [ 619600.0, 5637600.0 ], [ 619600.0, 5638000.0 ], [ 619200.0, 5638000.0 ], [ 619200.0, 5637600.0 ], [ 619600.0, 5637600.0 ] ] ] } },
{ "type": "Feature", "properties": { "geo_code": "Z1548_14095", "geo_name": "Z1548_14095" }, "geometry": { "type": "Polygon", "coordinates": [ [ [ 619600.0, 5638000.0 ], [ 619600.0, 5638400.0 ], [ 619200.0, 5638400.0 ], [ 619200.0, 5638000.0 ], [ 619600.0, 5638000.0 ] ] ] } },
{ "type": "Feature", "properties": { "geo_code": "Z1548_14096", "geo_name": "Z1548_14096" }, "geometry": { "type": "Polygon", "coordinates": [ [ [ 619600.0, 5638400.0 ], [ 619600.0, 5638800.0 ], [ 619200.0, 5638800.0 ], [ 619200.0, 5638400.0 ], [ 619600.0, 5638400.0 ] ] ] } },
{ "type": "Feature", "properties": { "geo_code": "Z1548_14097", "geo_name": "Z1548_14097" }, "geometry": { "type": "Polygon", "coordinates": [ [ [ 619600.0, 5638800.0 ], [ 619600.0, 5639200.0 ], [ 619200.0, 5639200.0 ], [ 619200.0, 5638800.0 ], [ 619600.0, 5638800.0 ] ] ] } },
{ "type": "Feature", "properties": { "geo_code": "Z1548_14098", "geo_name": "Z1548_14098" }, "geometry": { "type": "Polygon", "coordinates": [ [ [ 619600.0, 5639200.0 ], [ 619600.0, 5639600.0 ], [ 619200.0, 5639600.0 ], [ 619200.0, 5639200.0 ], [ 619600.0, 5639200.0 ] ] ] } },
{ "type": "Feature", "properties": { "geo_code": "Z1548_14099", "geo_name": "Z1548_14099" }, "geometry": { "type": "Polygon", "coordinates": [ [ [ 619600.0, 5639600.0 ], [ 619600.0, 5640000.0 ], [ 619200.0, 5640000.0 ], [ 619200.0, 5639600.0 ], [ 619600.0, 5639600.0 ] ] ] } },
{ "type": "Feature", "properties": { "geo_code": "Z1548_14100", "geo_name": "Z1548_14100" }, "geometry": { "type": "Polygon", "coordinates": [ [ [ 619600.0, 5640000.0 ], [ 619600.0, 5640400.0 ], [ 619200.0, 5640400.0 ], [ 619200.0, 5640000.0 ], [ 619600.0, 5640000.0 ] ] ] } },
{ "type": "Feature", "properties": { "geo_code": "Z1549_14089", "geo_name": "Z1549_14089" }, "geometry": { "type": "Polygon", "coordinates": [ [ [ 620000.0, 5635600.0 ], [ 620000.0, 5636000.0 ], [ 619600.0, 5636000.0 ], [ 619600.0, 5635600.0 ], [ 620000.0, 5635600.0 ] ] ] } },
{ "type": "Feature", "properties": { "geo_code": "Z1549_14090", "geo_name": "Z1549_14090" }, "geometry": { "type": "Polygon", "coordinates": [ [ [ 620000.0, 5636000.0 ], [ 620000.0, 5636400.0 ], [ 619600.0, 5636400.0 ], [ 619600.0, 5636000.0 ], [ 620000.0, 5636000.0 ] ] ] } },
{ "type": "Feature", "properties": { "geo_code": "Z1549_14091", "geo_name": "Z1549_14091" }, "geometry": { "type": "Polygon", "coordinates": [ [ [ 620000.0, 5636400.0 ], [ 620000.0, 5636800.0 ], [ 619600.0, 5636800.0 ], [ 619600.0, 5636400.0 ], [ 620000.0, 5636400.0 ] ] ] } },
{ "type": "Feature", "properties": { "geo_code": "Z1549_14092", "geo_name": "Z1549_14092" }, "geometry": { "type": "Polygon", "coordinates": [ [ [ 620000.0, 5636800.0 ], [ 620000.0, 5637200.0 ], [ 619600.0, 5637200.0 ], [ 619600.0, 5636800.0 ], [ 620000.0, 5636800.0 ] ] ] } },
{ "type": "Feature", "properties": { "geo_code": "Z1549_14093", "geo_name": "Z1549_14093" }, "geometry": { "type": "Polygon", "coordinates": [ [ [ 620000.0, 5637200.0 ], [ 620000.0, 5637600.0 ], [ 619600.0, 5637600.0 ], [ 619600.0, 5637200.0 ], [ 620000.0, 5637200.0 ] ] ] } },
{ "type": "Feature", "properties": { "geo_code": "Z1549_14094", "geo_name": "Z1549_14094" }, "geometry": { "type": "Polygon", "coordinates": [ [ [ 620000.0, 5637600.0 ], [ 620000.0, 5638000.0 ], [ 619600.0, 5638000.0 ], [ 619600.0, 5637600.0 ], [ 620000.0, 5637600.0 ] ] ] } },
{ "type": "Feature", "properties": { "geo_code": "Z1549_14095", "geo_name": "Z1549_14095" }, "geometry": { "type": "Polygon", "coordinates": [ [ [ 620000.0, 5638000.0 ], [ 620000.0, 5638400.0 ], [ 619600.0, 5638400.0 ], [ 619600.0, 5638000.0 ], [ 620000.0, 5638000.0 ] ] ] } },
{ "type": "Feature", "properties": { "geo_code": "Z1549_14096", "geo_name": "Z1549_14096" }, "geometry": { "type": "Polygon", "coordinates": [ [ [ 620000.0, 5638400.0 ], [ 620000.0, 5638800.0 ], [ 619600.0, 5638800.0 ], [ 619600.0, 5638400.0 ], [ 620000.0, 5638400.0 ] ] ] } },
{ "type": "Feature", "properties": { "geo_code": "Z1549_14097", "geo_name": "Z1549_14097" }, "geometry": { "type": "Polygon", "coordinates": [ [ [ 620000.0, 5638800.0 ], [ 620000.0, 5639200.0 ], [ 619600.0, 5639200.0 ], [ 619600.0, 5638800.0 ], [ 620000.0, 5638800.0 ] ] ] } },
{ "type": "Feature", "properties": { "geo_code": "Z1549_14098", "geo_name": "Z1549_14098" }, "geometry": { "type": "Polygon", "coordinates": [ [ [ 620000.0, 5639200.0 ], [ 620000.0, 5639600.0 ], [ 619600.0, 5639600.0 ], [ 619600.0, 5639200.0 ], [ 620000.0, 5639200.0 ] ] ] } },
{ "type": "Feature", "properties": { "geo_code": "Z1549_14099", "geo_name": "Z1549_14099" }, "geometry": { "type": "Polygon", "coordinates": [ [ [ 620000.0, 5639600.0 ], [ 620000.0, 5640000.0 ], [ 619600.0, 5640000.0 ], [ 619600.0, 5639600.0 ], [ 620000.0, 5639600.0 ] ] ] } },
{ "type": "Feature", "properties": { "geo_code": "Z1549_14100", "geo_name": "Z1549_14100" }, "geometry": { "type": "Polygon", "coordinates": [ [ [ 620000.0, 5640000.0 ], [ 620000.0, 5640400.0 ], [ 619600.0, 5640400.0 ], [ 619600.0, 5640000.0 ], [ 620000.0, 5640000.0 ] ] ] } },
{ "type": "Feature", "properties": { "geo_code": "Z1550_14089", "geo_name": "Z1550_14089" }, "geometry": { "type": "Polygon", "coordinates": [ [ [ 620400.0, 5635600.0 ], [ 620400.0, 5636000.0 ], [ 620000.0, 5636000.0 ], [ 620000.0, 5635600.0 ], [ 620400.0, 5635600.0 ] ] ] } },
{ "type": "Feature", "properties": { "geo_code": "Z1550_14090", "geo_name": "Z1550_14090" }, "geometry": { "type": "Polygon", "coordinates": [ [ [ 620400.0, 5636000.0 ], [ 620400.0, 5636400.0 ], [ 620000.0, 5636400.0 ], [ 620000.0, 5636000.0 ], [ 620400.0, 5636000.0 ] ] ] } },
{ "type": "Feature", "properties": { "geo_code": "Z1550_14091", "geo_name": "Z1550_14091" }, "geometry": { "type": "Polygon", "coordinates": [ [ [ 620400.0, 5636400.0 ], [ 620400.0, 5636800.0 ], [ 620000.0, 5636800.0 ], [ 620000.0, 5636400.0 ], [ 620400.0, 5636400.0 ] ] ] } },
{ "type": "Feature", "properties": { "geo_code": "Z1550_14092", "geo_name": "Z1550_14092" }, "geometry": { "type": "Polygon", "coordinates": [ [ [ 620400.0, 5636800.0 ], [ 620400.0, 5637200.0 ], [ 620000.0, 5637200.0 ], [ 620000.0, 5636800.0 ], [ 620400.0, 5636800.0 ] ] ] } },
{ "type": "Feature", "properties": { "geo_code": "Z1550_14093", "geo_name": "Z1550_14093" }, "geometry": { "type": "Polygon", "coordinates": [ [ [ 620400.0, 5637200.0 ], [ 620400.0, 5637600.0 ], [ 620000.0, 5637600.0 ], [ 620000.0, 5637200.0 ], [ 620400.0, 5637200.0 ] ] ] } },
{ "type": "Feature", "properties": { "geo_code": "Z1550_14094", "geo_name": "Z1550_14094" }, "geometry": { "type": "Polygon", "coordinates": [ [ [ 620400.0, 5637600.0 ], [ 620400.0, 5638000.0 ], [ 620000.0, 5638000.0 ], [ 620000.0, 5637600.0 ], [ 620400.0, 5637600.0 ] ] ] } },
{ "type": "Feature", "properties": { "geo_code": "Z1550_14095", "geo_name": "Z1550_14095" }, "geometry": { "type": "Polygon", "coordinates": [ [ [ 620400.0, 5638000.0 ], [ 620400.0, 5638400.0 ], [ 620000.0, 5638400.0 ], [ 620000.0, 5638000.0 ], [ 620400.0, 5638000.0 ] ] ] } },
{ "type": "Feature", "properties": { "geo_code": "Z1550_14096", "geo_name": "Z1550_14096" }, "geometry": { "type": "Polygon", "coordinates": [ [ [ 620400.0, 5638400.0 ], [ 620400.0, 5638800.0 ], [ 620000.0, 5638800.0 ], [ 620000.0, 5638400.0 ], [ 620400.0, 5638400.0 ] ] ] } },
{ "type": "Feature", "properties": { "geo_code": "Z1550_14097", "geo_name": "Z1550_14097" }, "geometry": { "type": "Polygon", "coordinates": [ [ [ 620400.0, 5638800.0 ], [ 620400.0, 5639200.0 ], [ 620000.0, 5639200.0 ], [ 620000.0, 5638800.0 ], [ 620400.0, 5638800.0 ] ] ] } },
{ "type": "Feature", "properties": { "geo_code": "Z1550_14098", "geo_name": "Z1550_14098" }, "geometry": { "type": "Polygon", "coordinates": [ [ [ 620400.0, 5639200.0 ], [ 620400.0, 5639600.0 ], [ 620000.0, 5639600.0 ], [ 620000.0, 5639200.0 ], [ 620400.0, 5639200.0 ] ] ] } },
{ "type": "Feature", "properties": { "geo_code": "Z1550_14099", "geo_name": "Z1550_14099" }, "geometry": { "type": "Polygon", "coordinates": [ [ [ 620400.0, 5639600.0 ], [ 620400.0, 5640000.0 ], [ 620000.0, 5640000.0 ], [ 620000.0, 5639600.0 ], [ 620400.0, 5639600.0 ] ] ] } },
{ "type": "Feature", "properties": { "geo_code": "Z1550_14100", "geo_name": "Z1550_14100" }, "geometry": { "type": "Polygon", "coordinates": [ [ [ 620400.0, 5640000.0 ], [ 620400.0, 5640400.0 ], [ 620000.0, 5640400.0 ], [ 620000.0, 5640000.0 ], [ 620400.0, 5640000.0 ] ] ] } },
{ "type": "Feature", "properties": { "geo_code": "Z1551_14089", "geo_name": "Z1551_14089" }, "geometry": { "type": "Polygon", "coordinates": [ [ [ 620800.0, 5635600.0 ], [ 620800.0, 5636000.0 ], [ 620400.0, 5636000.0 ], [ 620400.0, 5635600.0 ], [ 620800.0, 5635600.0 ] ] ] } },
{ "type": "Feature", "properties": { "geo_code": "Z1551_14090", "geo_name": "Z1551_14090" }, "geometry": { "type": "Polygon", "coordinates": [ [ [ 620800.0, 5636000.0 ], [ 620800.0, 5636400.0 ], [ 620400.0, 5636400.0 ], [ 620400.0, 5636000.0 ], [ 620800.0, 5636000.0 ] ] ] } },
{ "type": "Feature", "properties": { "geo_code": "Z1551_14091", "geo_name": "Z1551_14091" }, "geometry": { "type": "Polygon", "coordinates": [ [ [ 620800.0, 5636400.0 ], [ 620800.0, 5636800.0 ], [ 620400.0, 5636800.0 ], [ 620400.0, 5636400.0 ], [ 620800.0, 5636400.0 ] ] ] } },
{ "type": "Feature", "properties": { "geo_code": "Z1551_14092", "geo_name": "Z1551_14092" }, "geometry": { "type": "Polygon", "coordinates": [ [ [ 620800.0, 5636800.0 ], [ 620800.0, 5637200.0 ], [ 620400.0, 5637200.0 ], [ 620400.0, 5636800.0 ], [ 620800.0, 5636800.0 ] ] ] } },
{ "type": "Feature", "properties": { "geo_code": "Z1551_14093", "geo_name": "Z1551_14093" }, "geometry": { "type": "Polygon", "coordinates": [ [ [ 620800.0, 5637200.0 ], [ 620800.0, 5637600.0 ], [ 620400.0, 5637600.0 ], [ 620400.0, 5637200.0 ], [ 620800.0, 5637200.0 ] ] ] } },
{ "type": "Feature", "properties": { "geo_code": "Z1551_14094", "geo_name": "Z1551_14094" }, "geometry": { "type": "Polygon", "coordinates": [ [ [ 620800.0, 5637600.0 ], [ 620800.0, 5638000.0 ], [ 620400.0, 5638000.0 ], [ 620400.0, 5637600.0 ], [ 620800.0, 5637600.0 ] ] ] } },
{ "type": "Feature", "properties": { "geo_code": "Z1551_14095", "geo_name": "Z1551_14095" }, "geometry": { "type": "Polygon", "coordinates": [ [ [ 620800.0, 5638000.0 ], [ 620800.0, 5638400.0 ], [ 620400.0, 5638400.0 ], [ 620400.0, 5638000.0 ], [ 620800.0, 5638000.0 ] ] ] } },
{ "type": "Feature", "properties": { "geo_code": "Z1551_14096", "geo_name": "Z1551_14096" }, "geometry": { "type": "Polygon", "coordinates": [ [ [ 620800.0, 5638400.0 ], [ 620800.0, 5638800.0 ], [ 620400.0, 5638800.0 ], [ 620400.0, 5638400.0 ], [ 620800.0, 5638400.0 ] ] ] } },
{ "type": "Feature", "properties": { "geo_code": "Z1551_14097", "geo_name": "Z1551_14097" }, "geometry": { "type": "Polygon", "coordinates": [ [ [ 620800.0, 5638800.0 ], [ 620800.0, 5639200.0 ], [ 620400.0, 5639200.0 ], [ 620400.0, 5638800.0 ], [ 620800.0, 5638800.0 ] ] ] } },
{ "type": "Feature", "properties": { "geo_code": "Z1551_14098", "geo_name": "Z1551_14098" }, "geometry": { "type": "Polygon", "coordinates": [ [ [ 620800.0, 5639200.0 ], [ 620800.0, 5639600.0 ], [ 620400.0, 5639600.0 ], [ 620400.0, 5639200.0 ], [ 620800.0, 5639200.0 ] ] ] } },
{ "type": "Feature", "properties": { "geo_code": "Z1551_14099", "geo_name": "Z1551_14099" }, "geometry": { "type": "Polygon", "coordinates": [ [ [ 620800.0, 5639600.0 ], [ 620800.0, 5640000.0 ], [ 620400.0, 5640000.0 ], [ 620400.0, 5639600.0 ], [ 620800.0, 5639600.0 ] ] ] } },
{ "type": "Feature", "properties": { "geo_code": "Z1551_14100", "geo_name": "Z1551_14100" }, "geometry": { "type": "Polygon", "coordinates": [ [ [ 620800.0, 5640000.0 ], [ 620800.0, 5640400.0 ], [ 620400.0, 5640400.0 ], [ 620400.0, 5640000.0 ], [ 620800.0, 5640000.0 ] ] ] } },
{ "type": "Feature", "properties": { "geo_code": "Z1552_14089", "geo_name": "Z1552_14089" }, "geometry": { "type": "Polygon", "coordinates": [ [ [ 621200.0, 5635600.0 ], [ 621200.0, 5636000.0 ], [ 620800.0, 5636000.0 ], [ 620800.0, 5635600.0 ], [ 621200.0, 5635600.0 ] ] ] } },
{ "type": "Feature", "properties": { "geo_code": "Z1552_14090", "geo_name": "Z1552_14090" }, "geometry": { "type": "Polygon", "coordinates": [ [ [ 621200.0, 5636000.0 ], [ 621200.0, 5636400.0 ], [ 620800.0, 5636400.0 ], [ 620800.0, 5636000.0 ], [ 621200.0, 5636000.0 ] ] ] } },
{ "type": "Feature", "properties": { "geo_code": "Z1552_14091", "geo_name": "Z1552_14091" }, "geometry": { "type": "Polygon", "coordinates": [ [ [ 621200.0, 5636400.0 ], [ 621200.0, 5636800.0 ], [ 620800.0, 5636800.0 ], [ 620800.0, 5636400.0 ], [ 621200.0, 5636400.0 ] ] ] } },
{ "type": "Feature", "properties": { "geo_code": "Z1552_14092", "geo_name": "Z1552_14092" }, "geometry": { "type": "Polygon", "coordinates": [ [ [ 621200.0, 5636800.0 ], [ 621200.0, 5637200.0 ], [ 620800.0, 5637200.0 ], [ 620800.0, 5636800.0 ], [ 621200.0, 5636800.0 ] ] ] } },
{ "type": "Feature", "properties": { "geo_code": "Z1552_14093", "geo_name": "Z1552_14093" }, "geometry": { "type": "Polygon", "coordinates": [ [ [ 621200.0, 5637200.0 ], [ 621200.0, 5637600.0 ], [ 620800.0, 5637600.0 ], [ 620800.0, 5637200.0 ], [ 621200.0, 5637200.0 ] ] ] } },
{ "type": "Feature", "properties": { "geo_code": "Z1552_14094", "geo_name": "Z1552_14094" }, "geometry": { "type": "Polygon", "coordinates": [ [ [ 621200.0, 5637600.0 ], [ 621200.0, 5638000.0 ], [ 620800.0, 5638000.0 ], [ 620800.0, 5637600.0 ], [ 621200.0, 5637600.0 ] ] ] } },
{ "type": "Feature", "properties": { "geo_code": "Z1552_14095", "geo_name": "Z1552_14095" }, "geometry": { "type": "Polygon", "coordinates": [ [ [ 621200.0, 5638000.0 ], [ 621200.0, 5638400.0 ], [ 620800.0, 5638400.0 ], [ 620800.0, 5638000.0 ], [ 621200.0, 5638000.0 ] ] ] } },
{ "type": "Feature", "properties": { "geo_code": "Z1552_14096", "geo_name": "Z1552_14096" }, "geometry": { "type": "Polygon", "coordinates": [ [ [ 621200.0, 5638400.0 ], [ 621200.0, 5638800.0 ], [ 620800.0, 5638800.0 ], [ 620800.0, 5638400.0 ], [ 621200.0, 5638400.0 ] ] ] } },
{ "type": "Feature", "properties": { "geo_code": "Z1552_14097", "geo_name": "Z1552_14097" }, "geometry": { "type": "Polygon", "coordinates": [ [ [ 621200.0, 5638800.0 ], [ 621200.0, 5639200.0 ], [ 620800.0, 5639200.0 ], [ 620800.0, 5638800.0 ], [ 621200.0, 5638800.0 ] ] ] } },
{ "type": "Feature", "properties": { "geo_code": "Z1552_14098", "geo_name": "Z1552_14098" }, "geometry": { "type": "Polygon", "coordinates": [ [ [ 621200.0, 5639200.0 ], [ 621200.0, 5639600.0 ], [ 620800.0, 5639600.0 ], [ 620800.0, 5639200.0 ], [ 621200.0, 5639200.0 ] ] ] } },
{ "type": "Feature", "properties": { "geo_code": "Z1552_14099", "geo_name": "Z1552_14099" }, "geometry": { "type": "Polygon", "coordinates": [ [ [ 621200.0, 5639600.0 ], [ 621200.0, 5640000.0 ], [ 620800.0, 5640000.0 ], [ 620800.0, 5639600.0 ], [ 621200.0, 5639600.0 ] ] ] } },
{ "type": "Feature", "properties": { "geo_code": "Z1552_14100", "geo_name": "Z1552_14100" }, "geometry": { "type": "Polygon", "coordinates": [ [ [ 621200.0, 5640000.0 ], [ 621200.0, 5640400.0 ], [ 620800.0, 5640400.0 ], [ 620800.0, 5640000.0 ], [ 621200.0, 5640000.0 ] ] ] } },
{ "type": "Feature", "properties": { "geo_code": "Z1553_14089", "geo_name": "Z1553_14089" }, "geometry": { "type": "Polygon", "coordinates": [ [ [ 621600.0, 5635600.0 ], [ 621600.0, 5636000.0 ], [ 621200.0, 5636000.0 ], [ 621200.0, 5635600.0 ], [ 621600.0, 5635600.0 ] ] ] } },
{ "type": "Feature", "properties": { "geo_code": "Z1553_14090", "geo_name": "Z1553_14090" }, "geometry": { "type": "Polygon", "coordinates": [ [ [ 621600.0, 5636000.0 ], [ 621600.0, 5636400.0 ], [ 621200.0, 5636400.0 ], [ 621200.0, 5636000.0 ], [ 621600.0, 5636000.0 ] ] ] } },
{ "type": "Feature", "properties": { "geo_code": "Z1553_14091", "geo_name": "Z1553_14091" }, "geometry": { "type": "Polygon", "coordinates": [ [ [ 621600.0, 5636400.0 ], [ 621600.0, 5636800.0 ], [ 621200.0, 5636800.0 ], [ 621200.0, 5636400.0 ], [ 621600.0, 5636400.0 ] ] ] } },
{ "type": "Feature", "properties": { "geo_code": "Z1553_14092", "geo_name": "Z1553_14092" }, "geometry": { "type": "Polygon", "coordinates": [ [ [ 621600.0, 5636800.0 ], [ 621600.0, 5637200.0 ], [ 621200.0, 5637200.0 ], [ 621200.0, 5636800.0 ], [ 621600.0, 5636800.0 ] ] ] } },
{ "type": "Feature", "properties": { "geo_code": "Z1553_14093", "geo_name": "Z1553_14093" }, "geometry": { "type": "Polygon", "coordinates": [ [ [ 621600.0, 5637200.0 ], [ 621600.0, 5637600.0 ], [ 621200.0, 5637600.0 ], [ 621200.0, 5637200.0 ], [ 621600.0, 5637200.0 ] ] ] } },
{ "type": "Feature", "properties": { "geo_code": "Z1553_14094", "geo_name": "Z1553_14094" }, "geometry": { "type": "Polygon", "coordinates": [ [ [ 621600.0, 5637600.0 ], [ 621600.0, 5638000.0 ], [ 621200.0, 5638000.0 ], [ 621200.0, 5637600.0 ], [ 621600.0, 5637600.0 ] ] ] } },
{ "type": "Feature", "properties": { "geo_code": "Z1553_14095", "geo_name": "Z1553_14095" }, "geometry": { "type": "Polygon", "coordinates": [ [ [ 621600.0, 5638000.0 ], [ 621600.0, 5638400.0 ], [ 621200.0, 5638400.0 ], [ 621200.0, 5638000.0 ], [ 621600.0, 5638000.0 ] ] ] } },
{ "type": "Feature", "properties": { "geo_code": "Z1553_14096", "geo_name": "Z1553_14096" }, "geometry": { "type": "Polygon", "coordinates": [ [ [ 621600.0, 5638400.0 ], [ 621600.0, 5638800.0 ], [ 621200.0, 5638800.0 ], [ 621200.0, 5638400.0 ], [ 621600.0, 5638400.0 ] ] ] } },
{ "type": "Feature", "properties": { "geo_code": "Z1553_14097", "geo_name": "Z1553_14097" }, "geometry": { "type": "Polygon", "coordinates": [ [ [ 621600.0, 5638800.0 ], [ 621600.0, 5639200.0 ], [ 621200.0, 5639200.0 ], [ 621200.0, 5638800.0 ], [ 621600.0, 5638800.0 ] ] ] } },
{ "type": "Feature", "properties": { "geo_code": "Z1553_14098", "geo_name": "Z1553_14098" }, "geometry": { "type": "Polygon", "coordinates": [ [ [ 621600.0, 5639200.0 ], [ 621600.0, 5639600.0 ], [ 621200.0, 5639600.0 ], [ 621200.0, 5639200.0 ], [ 621600.0, 5639200.0 ] ] ] } },
{ "type": "Feature", "properties": { "geo_code": "Z1553_14099", "geo_name": "Z1553_14099" }, "geometry": { "type": "Polygon", "coordinates": [ [ [ 621600.0, 5639600.0 ], [ 621600.0, 5640000.0 ], [ 621200.0, 5640000.0 ], [ 621200.0, 5639600.0 ], [ 621600.0, 5639600.0 ] ] ] } },
{ "type": "Feature", "properties": { "geo_code": "Z1553_14100", "geo_name": "Z1553_14100" }, "geometry": { "type": "Polygon", "coordinates": [ [ [ 621600.0, 5640000.0 ], [ 621600.0, 5640400.0 ], [ 621200.0, 5640400.0 ], [ 621200.0, 5640000.0 ], [ 621600.0, 5640000.0 ] ] ] } },
{ "type": "Feature", "properties": { "geo_code": "Z1554_14089", "geo_name": "Z1554_14089" }, "geometry": { "type": "Polygon", "coordinates": [ [ [ 622000.0, 5635600.0 ], [ 622000.0, 5636000.0 ], [ 621600.0, 5636000.0 ], [ 621600.0, 5635600.0 ], [ 622000.0, 5635600.0 ] ] ] } },
{ "type": "Feature", "properties": { "geo_code": "Z1554_14090", "geo_name": "Z1554_14090" }, "geometry": { "type": "Polygon", "coordinates": [ [ [ 622000.0, 5636000.0 ], [ 622000.0, 5636400.0 ], [ 621600.0, 5636400.0 ], [ 621600.0, 5636000.0 ], [ 622000.0, 5636000.0 ] ] ] } },
{ "type": "Feature", "properties": { "geo_code": "Z1554_14091", "geo_name": "Z1554_14091" }, "geometry": { "type": "Polygon", "coordinates": [ [ [ 622000.0, 5636400.0 ], [ 622000.0, 5636800.0 ], [ 621600.0, 5636800.0 ], [ 621600.0, 5636400.0 ], [ 622000.0, 5636400.0 ] ] ] } },
{ "type": "Feature", "properties": { "geo_code": "Z1554_14092", "geo_name": "Z1554_14092" }, "geometry": { "type": "Polygon", "coordinates": [ [ [ 622000.0, 5636800.0 ], [ 622000.0, 5637200.0 ], [ 621600.0, 5637200.0 ], [ 621600.0, 5636800.0 ], [ 622000.0, 5636800.0 ] ] ] } },
{ "type": "Feature", "properties": { "geo_code": "Z1554_14093", "geo_name": "Z1554_14093" }, "geometry": { "type": "Polygon", "coordinates": [ [ [ 622000.0, 5637200.0 ], [ 622000.0, 5637600.0 ], [ 621600.0, 5637600.0 ], [ 621600.0, 5637200.0 ], [ 622000.0, 5637200.0 ] ] ] } },
{ "type": "Feature", "properties": { "geo_code": "Z1554_14094", "geo_name": "Z1554_14094" }, "geometry": { "type": "Polygon", "coordinates": [ [ [ 622000.0, 5637600.0 ], [ 622000.0, 5638000.0 ], [ 621600.0, 5638000.0 ], [ 621600.0, 5637600.0 ], [ 622000.0, 5637600.0 ] ] ] } },
{ "type": "Feature", "properties": { "geo_code": "Z1554_14095", "geo_name": "Z1554_14095" }, "geometry": { "type": "Polygon", "coordinates": [ [ [ 622000.0, 5638000.0 ], [ 622000.0, 5638400.0 ], [ 621600.0, 5638400.0 ], [ 621600.0, 5638000.0 ], [ 622000.0, 5638000.0 ] ] ] } },
{ "type": "Feature", "properties": { "geo_code": "Z1554_14096", "geo_name": "Z1554_14096" }, "geometry": { "type": "Polygon", "coordinates": [ [ [ 622000.0, 5638400.0 ], [ 622000.0, 5638800.0 ], [ 621600.0, 5638800.0 ], [ 621600.0, 5638400.0 ], [ 622000.0, 5638400.0 ] ] ] } },
{ "type": "Feature", "properties": { "geo_code": "Z1554_14097", "geo_name": "Z1554_14097" }, "geometry": { "type": "Polygon", "coordinates": [ [ [ 622000.0, 5638800.0 ], [ 622000.0, 5639200.0 ], [ 621600.0, 5639200.0 ], [ 621600.0, 5638800.0 ], [ 622000.0, 5638800.0 ] ] ] } },
{ "type": "Feature", "properties": { "geo_code": "Z1554_14098", "geo_name": "Z1554_14098" }, "geometry": { "type": "Polygon", "coordinates": [ [ [ 622000.0, 5639200.0 ], [ 622000.0, 5639600.0 ], [ 621600.0, 5639600.0 ], [ 621600.0, 5639200.0 ], [ 622000.0, 5639200.0 ] ] ] } },
{ "type": "Feature", "properties": { "geo_code": "Z1554_14099", "geo_name": "Z1554_14099" }, "geometry": { "type": "Polygon", "coordinates": [ [ [ 622000.0, 5639600.0 ], [ 622000.0, 5640000.0 ], [ 621600.0, 5640000.0 ], [ 621600.0, 5639600.0 ], [ 622000.0, 5639600.0 ] ] ] } },
{ "type": "Feature", "properties": { "geo_code": "Z1554_14100", "geo_name": "Z1554_14100" }, "geometry": { "type": "Polygon", "coordinates": [ [ [ 622000.0, 5640000.0 ], [ 622000.0, 5640400.0 ], [ 621600.0, 5640400.0 ], [ 621600.0, 5640000.0 ], [ 622000.0, 5640000.0 ] ] ] } },
{ "type": "Feature", "properties": { "geo_code": "Z1542_14088", "geo_name": "Z1542_14088" }, "geometry": { "type": "Polygon", "coordinates": [ [ [ 617200.0, 5635200.0 ], [ 617200.0, 5635600.0 ], [ 616800.0, 5635600.0 ], [ 616800.0, 5635200.0 ], [ 617200.0, 5635200.0 ] ] ] } },
{ "type": "Feature", "properties": { "geo_code": "Z1542_14089", "geo_name": "Z1542_14089" }, "geometry": { "type": "Polygon", "coordinates": [ [ [ 617200.0, 5635600.0 ], [ 617200.0, 5636000.0 ], [ 616800.0, 5636000.0 ], [ 616800.0, 5635600.0 ], [ 617200.0, 5635600.0 ] ] ] } },
{ "type": "Feature", "properties": { "geo_code": "Z1542_14091", "geo_name": "Z1542_14091" }, "geometry": { "type": "Polygon", "coordinates": [ [ [ 617200.0, 5636400.0 ], [ 617200.0, 5636800.0 ], [ 616800.0, 5636800.0 ], [ 616800.0, 5636400.0 ], [ 617200.0, 5636400.0 ] ] ] } },
{ "type": "Feature", "properties": { "geo_code": "Z1542_14093", "geo_name": "Z1542_14093" }, "geometry": { "type": "Polygon", "coordinates": [ [ [ 617200.0, 5637200.0 ], [ 617200.0, 5637600.0 ], [ 616800.0, 5637600.0 ], [ 616800.0, 5637200.0 ], [ 617200.0, 5637200.0 ] ] ] } },
{ "type": "Feature", "properties": { "geo_code": "Z1543_14094", "geo_name": "Z1543_14094" }, "geometry": { "type": "Polygon", "coordinates": [ [ [ 617600.0, 5637600.0 ], [ 617600.0, 5638000.0 ], [ 617200.0, 5638000.0 ], [ 617200.0, 5637600.0 ], [ 617600.0, 5637600.0 ] ] ] } },
{ "type": "Feature", "properties": { "geo_code": "Z1543_14099", "geo_name": "Z1543_14099" }, "geometry": { "type": "Polygon", "coordinates": [ [ [ 617600.0, 5639600.0 ], [ 617600.0, 5640000.0 ], [ 617200.0, 5640000.0 ], [ 617200.0, 5639600.0 ], [ 617600.0, 5639600.0 ] ] ] } },
{ "type": "Feature", "properties": { "geo_code": "Z1543_14100", "geo_name": "Z1543_14100" }, "geometry": { "type": "Polygon", "coordinates": [ [ [ 617600.0, 5640000.0 ], [ 617600.0, 5640400.0 ], [ 617200.0, 5640400.0 ], [ 617200.0, 5640000.0 ], [ 617600.0, 5640000.0 ] ] ] } },
{ "type": "Feature", "properties": { "geo_code": "Z1543_14101", "geo_name": "Z1543_14101" }, "geometry": { "type": "Polygon", "coordinates": [ [ [ 617600.0, 5640400.0 ], [ 617600.0, 5640800.0 ], [ 617200.0, 5640800.0 ], [ 617200.0, 5640400.0 ], [ 617600.0, 5640400.0 ] ] ] } },
{ "type": "Feature", "properties": { "geo_code": "Z1543_14102", "geo_name": "Z1543_14102" }, "geometry": { "type": "Polygon", "coordinates": [ [ [ 617600.0, 5640800.0 ], [ 617600.0, 5641200.0 ], [ 617200.0, 5641200.0 ], [ 617200.0, 5640800.0 ], [ 617600.0, 5640800.0 ] ] ] } },
{ "type": "Feature", "properties": { "geo_code": "Z1544_14087", "geo_name": "Z1544_14087" }, "geometry": { "type": "Polygon", "coordinates": [ [ [ 618000.0, 5634800.0 ], [ 618000.0, 5635200.0 ], [ 617600.0, 5635200.0 ], [ 617600.0, 5634800.0 ], [ 618000.0, 5634800.0 ] ] ] } },
{ "type": "Feature", "properties": { "geo_code": "Z1544_14089", "geo_name": "Z1544_14089" }, "geometry": { "type": "Polygon", "coordinates": [ [ [ 618000.0, 5635600.0 ], [ 618000.0, 5636000.0 ], [ 617600.0, 5636000.0 ], [ 617600.0, 5635600.0 ], [ 618000.0, 5635600.0 ] ] ] } },
{ "type": "Feature", "properties": { "geo_code": "Z1544_14091", "geo_name": "Z1544_14091" }, "geometry": { "type": "Polygon", "coordinates": [ [ [ 618000.0, 5636400.0 ], [ 618000.0, 5636800.0 ], [ 617600.0, 5636800.0 ], [ 617600.0, 5636400.0 ], [ 618000.0, 5636400.0 ] ] ] } },
{ "type": "Feature", "properties": { "geo_code": "Z1544_14092", "geo_name": "Z1544_14092" }, "geometry": { "type": "Polygon", "coordinates": [ [ [ 618000.0, 5636800.0 ], [ 618000.0, 5637200.0 ], [ 617600.0, 5637200.0 ], [ 617600.0, 5636800.0 ], [ 618000.0, 5636800.0 ] ] ] } },
{ "type": "Feature", "properties": { "geo_code": "Z1544_14093", "geo_name": "Z1544_14093" }, "geometry": { "type": "Polygon", "coordinates": [ [ [ 618000.0, 5637200.0 ], [ 618000.0, 5637600.0 ], [ 617600.0, 5637600.0 ], [ 617600.0, 5637200.0 ], [ 618000.0, 5637200.0 ] ] ] } },
{ "type": "Feature", "properties": { "geo_code": "Z1544_14094", "geo_name": "Z1544_14094" }, "geometry": { "type": "Polygon", "coordinates": [ [ [ 618000.0, 5637600.0 ], [ 618000.0, 5638000.0 ], [ 617600.0, 5638000.0 ], [ 617600.0, 5637600.0 ], [ 618000.0, 5637600.0 ] ] ] } },
{ "type": "Feature", "properties": { "geo_code": "Z1544_14099", "geo_name": "Z1544_14099" }, "geometry": { "type": "Polygon", "coordinates": [ [ [ 618000.0, 5639600.0 ], [ 618000.0, 5640000.0 ], [ 617600.0, 5640000.0 ], [ 617600.0, 5639600.0 ], [ 618000.0, 5639600.0 ] ] ] } },
{ "type": "Feature", "properties": { "geo_code": "Z1544_14100", "geo_name": "Z1544_14100" }, "geometry": { "type": "Polygon", "coordinates": [ [ [ 618000.0, 5640000.0 ], [ 618000.0, 5640400.0 ], [ 617600.0, 5640400.0 ], [ 617600.0, 5640000.0 ], [ 618000.0, 5640000.0 ] ] ] } },
{ "type": "Feature", "properties": { "geo_code": "Z1544_14101", "geo_name": "Z1544_14101" }, "geometry": { "type": "Polygon", "coordinates": [ [ [ 618000.0, 5640400.0 ], [ 618000.0, 5640800.0 ], [ 617600.0, 5640800.0 ], [ 617600.0, 5640400.0 ], [ 618000.0, 5640400.0 ] ] ] } },
{ "type": "Feature", "properties": { "geo_code": "Z1544_14102", "geo_name": "Z1544_14102" }, "geometry": { "type": "Polygon", "coordinates": [ [ [ 618000.0, 5640800.0 ], [ 618000.0, 5641200.0 ], [ 617600.0, 5641200.0 ], [ 617600.0, 5640800.0 ], [ 618000.0, 5640800.0 ] ] ] } },
{ "type": "Feature", "properties": { "geo_code": "Z1545_14088", "geo_name": "Z1545_14088" }, "geometry": { "type": "Polygon", "coordinates": [ [ [ 618400.0, 5635200.0 ], [ 618400.0, 5635600.0 ], [ 618000.0, 5635600.0 ], [ 618000.0, 5635200.0 ], [ 618400.0, 5635200.0 ] ] ] } },
{ "type": "Feature", "properties": { "geo_code": "Z1545_14101", "geo_name": "Z1545_14101" }, "geometry": { "type": "Polygon", "coordinates": [ [ [ 618400.0, 5640400.0 ], [ 618400.0, 5640800.0 ], [ 618000.0, 5640800.0 ], [ 618000.0, 5640400.0 ], [ 618400.0, 5640400.0 ] ] ] } },
{ "type": "Feature", "properties": { "geo_code": "Z1547_14087", "geo_name": "Z1547_14087" }, "geometry": { "type": "Polygon", "coordinates": [ [ [ 619200.0, 5634800.0 ], [ 619200.0, 5635200.0 ], [ 618800.0, 5635200.0 ], [ 618800.0, 5634800.0 ], [ 619200.0, 5634800.0 ] ] ] } },
{ "type": "Feature", "properties": { "geo_code": "Z1548_14087", "geo_name": "Z1548_14087" }, "geometry": { "type": "Polygon", "coordinates": [ [ [ 619600.0, 5634800.0 ], [ 619600.0, 5635200.0 ], [ 619200.0, 5635200.0 ], [ 619200.0, 5634800.0 ], [ 619600.0, 5634800.0 ] ] ] } },
{ "type": "Feature", "properties": { "geo_code": "Z1548_14101", "geo_name": "Z1548_14101" }, "geometry": { "type": "Polygon", "coordinates": [ [ [ 619600.0, 5640400.0 ], [ 619600.0, 5640800.0 ], [ 619200.0, 5640800.0 ], [ 619200.0, 5640400.0 ], [ 619600.0, 5640400.0 ] ] ] } },
{ "type": "Feature", "properties": { "geo_code": "Z1549_14088", "geo_name": "Z1549_14088" }, "geometry": { "type": "Polygon", "coordinates": [ [ [ 620000.0, 5635200.0 ], [ 620000.0, 5635600.0 ], [ 619600.0, 5635600.0 ], [ 619600.0, 5635200.0 ], [ 620000.0, 5635200.0 ] ] ] } },
{ "type": "Feature", "properties": { "geo_code": "Z1549_14101", "geo_name": "Z1549_14101" }, "geometry": { "type": "Polygon", "coordinates": [ [ [ 620000.0, 5640400.0 ], [ 620000.0, 5640800.0 ], [ 619600.0, 5640800.0 ], [ 619600.0, 5640400.0 ], [ 620000.0, 5640400.0 ] ] ] } },
{ "type": "Feature", "properties": { "geo_code": "Z1550_14088", "geo_name": "Z1550_14088" }, "geometry": { "type": "Polygon", "coordinates": [ [ [ 620400.0, 5635200.0 ], [ 620400.0, 5635600.0 ], [ 620000.0, 5635600.0 ], [ 620000.0, 5635200.0 ], [ 620400.0, 5635200.0 ] ] ] } },
{ "type": "Feature", "properties": { "geo_code": "Z1550_14102", "geo_name": "Z1550_14102" }, "geometry": { "type": "Polygon", "coordinates": [ [ [ 620400.0, 5640800.0 ], [ 620400.0, 5641200.0 ], [ 620000.0, 5641200.0 ], [ 620000.0, 5640800.0 ], [ 620400.0, 5640800.0 ] ] ] } },
{ "type": "Feature", "properties": { "geo_code": "Z1551_14086", "geo_name": "Z1551_14086" }, "geometry": { "type": "Polygon", "coordinates": [ [ [ 620800.0, 5634400.0 ], [ 620800.0, 5634800.0 ], [ 620400.0, 5634800.0 ], [ 620400.0, 5634400.0 ], [ 620800.0, 5634400.0 ] ] ] } },
{ "type": "Feature", "properties": { "geo_code": "Z1552_14088", "geo_name": "Z1552_14088" }, "geometry": { "type": "Polygon", "coordinates": [ [ [ 621200.0, 5635200.0 ], [ 621200.0, 5635600.0 ], [ 620800.0, 5635600.0 ], [ 620800.0, 5635200.0 ], [ 621200.0, 5635200.0 ] ] ] } },
{ "type": "Feature", "properties": { "geo_code": "Z1552_14101", "geo_name": "Z1552_14101" }, "geometry": { "type": "Polygon", "coordinates": [ [ [ 621200.0, 5640400.0 ], [ 621200.0, 5640800.0 ], [ 620800.0, 5640800.0 ], [ 620800.0, 5640400.0 ], [ 621200.0, 5640400.0 ] ] ] } },
{ "type": "Feature", "properties": { "geo_code": "Z1552_14102", "geo_name": "Z1552_14102" }, "geometry": { "type": "Polygon", "coordinates": [ [ [ 621200.0, 5640800.0 ], [ 621200.0, 5641200.0 ], [ 620800.0, 5641200.0 ], [ 620800.0, 5640800.0 ], [ 621200.0, 5640800.0 ] ] ] } },
{ "type": "Feature", "properties": { "geo_code": "Z1553_14086", "geo_name": "Z1553_14086" }, "geometry": { "type": "Polygon", "coordinates": [ [ [ 621600.0, 5634400.0 ], [ 621600.0, 5634800.0 ], [ 621200.0, 5634800.0 ], [ 621200.0, 5634400.0 ], [ 621600.0, 5634400.0 ] ] ] } },
{ "type": "Feature", "properties": { "geo_code": "Z1555_14090", "geo_name": "Z1555_14090" }, "geometry": { "type": "Polygon", "coordinates": [ [ [ 622400.0, 5636000.0 ], [ 622400.0, 5636400.0 ], [ 622000.0, 5636400.0 ], [ 622000.0, 5636000.0 ], [ 622400.0, 5636000.0 ] ] ] } },
{ "type": "Feature", "properties": { "geo_code": "Z1555_14091", "geo_name": "Z1555_14091" }, "geometry": { "type": "Polygon", "coordinates": [ [ [ 622400.0, 5636400.0 ], [ 622400.0, 5636800.0 ], [ 622000.0, 5636800.0 ], [ 622000.0, 5636400.0 ], [ 622400.0, 5636400.0 ] ] ] } },
{ "type": "Feature", "properties": { "geo_code": "Z1555_14093", "geo_name": "Z1555_14093" }, "geometry": { "type": "Polygon", "coordinates": [ [ [ 622400.0, 5637200.0 ], [ 622400.0, 5637600.0 ], [ 622000.0, 5637600.0 ], [ 622000.0, 5637200.0 ], [ 622400.0, 5637200.0 ] ] ] } },
{ "type": "Feature", "properties": { "geo_code": "Z1555_14095", "geo_name": "Z1555_14095" }, "geometry": { "type": "Polygon", "coordinates": [ [ [ 622400.0, 5638000.0 ], [ 622400.0, 5638400.0 ], [ 622000.0, 5638400.0 ], [ 622000.0, 5638000.0 ], [ 622400.0, 5638000.0 ] ] ] } },
{ "type": "Feature", "properties": { "geo_code": "Z1555_14096", "geo_name": "Z1555_14096" }, "geometry": { "type": "Polygon", "coordinates": [ [ [ 622400.0, 5638400.0 ], [ 622400.0, 5638800.0 ], [ 622000.0, 5638800.0 ], [ 622000.0, 5638400.0 ], [ 622400.0, 5638400.0 ] ] ] } },
{ "type": "Feature", "properties": { "geo_code": "Z1555_14097", "geo_name": "Z1555_14097" }, "geometry": { "type": "Polygon", "coordinates": [ [ [ 622400.0, 5638800.0 ], [ 622400.0, 5639200.0 ], [ 622000.0, 5639200.0 ], [ 622000.0, 5638800.0 ], [ 622400.0, 5638800.0 ] ] ] } }
]
}
